[
  {
    "id": 4,
    "iso2": "af",
    "iso3": "afg",
    "name": "افغانستان",
    "flag": "https://www.world-api.ir/v1/countries/flag/AF.svg",
    "capital": "کابل",
    "calling_code": 93,
    "continent": "آسیا",
    "lat": 33.0,
    "long": 65.0
  },
  {
    "id": 8,
    "iso2": "al",
    "iso3": "alb",
    "name": "آلبانی",
    "flag": "https://www.world-api.ir/v1/countries/flag/AL.svg",
    "capital": "تیرانا",
    "calling_code": 355,
    "continent": "اروپا",
    "lat": 41.0,
    "long": 20.0
  },
  {
    "id": 12,
    "iso2": "dz",
    "iso3": "dza",
    "name": "الجزایر",
    "flag": "https://www.world-api.ir/v1/countries/flag/DZ.svg",
    "capital": "الجزیره",
    "calling_code": 213,
    "continent": "آفریقا",
    "lat": 28.0,
    "long": 3.0
  },
  {
    "id": 20,
    "iso2": "ad",
    "iso3": "and",
    "name": "آندورا",
    "flag": "https://www.world-api.ir/v1/countries/flag/AD.svg",
    "capital": "آندورا لاولا",
    "calling_code": 376,
    "continent": "اروپا",
    "lat": 42.5,
    "long": 1.6
  },
  {
    "id": 24,
    "iso2": "ao",
    "iso3": "ago",
    "name": "آنگولا",
    "flag": "https://www.world-api.ir/v1/countries/flag/AO.svg",
    "capital": "لواندا",
    "calling_code": 244,
    "continent": "آفریقا",
    "lat": -12.5,
    "long": 18.5
  },
  {
    "id": 28,
    "iso2": "ag",
    "iso3": "atg",
    "name": "آنتیگوآ و باربودا",
    "flag": "https://www.world-api.ir/v1/countries/flag/AG.svg",
    "capital": "سنت جانز",
    "calling_code": 1,
    "continent": "آمریکای شمالی",
    "lat": 17.05,
    "long": -61.8
  },
  {
    "id": 32,
    "iso2": "ar",
    "iso3": "arg",
    "name": "آرژانتین",
    "flag": "https://www.world-api.ir/v1/countries/flag/AR.svg",
    "capital": "بوئنوس آیرس",
    "calling_code": 54,
    "continent": "آمریکای جنوبی",
    "lat": -34.0,
    "long": -64.0
  },
  {
    "id": 51,
    "iso2": "am",
    "iso3": "arm",
    "name": "ارمنستان",
    "flag": "https://www.world-api.ir/v1/countries/flag/AM.svg",
    "capital": "ایروان",
    "calling_code": 374,
    "continent": "آسیا",
    "lat": 40.0,
    "long": 45.0
  },
  {
    "id": 36,
    "iso2": "au",
    "iso3": "aus",
    "name": "استرالیا",
    "flag": "https://www.world-api.ir/v1/countries/flag/AU.svg",
    "capital": "کانبرا",
    "calling_code": 61,
    "continent": "استرالیا",
    "lat": -27.0,
    "long": 133.0
  },
  {
    "id": 40,
    "iso2": "at",
    "iso3": "aut",
    "name": "اتریش",
    "flag": "https://www.world-api.ir/v1/countries/flag/AT.svg",
    "capital": "وین",
    "calling_code": 43,
    "continent": "اروپا",
    "lat": 47.3333,
    "long": 13.3333
  },
  {
    "id": 31,
    "iso2": "az",
    "iso3": "aze",
    "name": "جمهوری آذربایجان",
    "flag": "https://www.world-api.ir/v1/countries/flag/AZ.svg",
    "capital": "باکو",
    "calling_code": 994,
    "continent": "آسیا",
    "lat": 40.5,
    "long": 47.5
  },
  {
    "id": 44,
    "iso2": "bs",
    "iso3": "bhs",
    "name": "باهاما",
    "flag": "https://www.world-api.ir/v1/countries/flag/BS.svg",
    "capital": "ناساو",
    "calling_code": 1,
    "continent": "آمریکای شمالی",
    "lat": 24.25,
    "long": -76.0
  },
  {
    "id": 48,
    "iso2": "bh",
    "iso3": "bhr",
    "name": "بحرین",
    "flag": "https://www.world-api.ir/v1/countries/flag/BH.svg",
    "capital": "منامه",
    "calling_code": 973,
    "continent": "آسیا",
    "lat": 26.0,
    "long": 50.55
  },
  {
    "id": 50,
    "iso2": "bd",
    "iso3": "bgd",
    "name": "بنگلادش",
    "flag": "https://www.world-api.ir/v1/countries/flag/BD.svg",
    "capital": "داکا",
    "calling_code": 880,
    "continent": "آسیا",
    "lat": 24.0,
    "long": 90.0
  },
  {
    "id": 52,
    "iso2": "bb",
    "iso3": "brb",
    "name": "باربادوس",
    "flag": "https://www.world-api.ir/v1/countries/flag/BB.svg",
    "capital": "بریج‌تاون",
    "calling_code": 1,
    "continent": "آمریکای شمالی",
    "lat": 13.1667,
    "long": -59.5333
  },
  {
    "id": 112,
    "iso2": "by",
    "iso3": "blr",
    "name": "بلاروس",
    "flag": "https://www.world-api.ir/v1/countries/flag/BY.svg",
    "capital": "مینسک",
    "calling_code": 375,
    "continent": "اروپا",
    "lat": 53.0,
    "long": 28.0
  },
  {
    "id": 56,
    "iso2": "be",
    "iso3": "bel",
    "name": "بلژیک",
    "flag": "https://www.world-api.ir/v1/countries/flag/BE.svg",
    "capital": "بروکسل",
    "calling_code": 32,
    "continent": "اروپا",
    "lat": 50.8333,
    "long": 4.0
  },
  {
    "id": 84,
    "iso2": "bz",
    "iso3": "blz",
    "name": "بلیز",
    "flag": "https://www.world-api.ir/v1/countries/flag/BZ.svg",
    "capital": "بلموپان",
    "calling_code": 501,
    "continent": "آمریکای شمالی",
    "lat": 17.25,
    "long": -88.75
  },
  {
    "id": 204,
    "iso2": "bj",
    "iso3": "ben",
    "name": "بنین",
    "flag": "https://www.world-api.ir/v1/countries/flag/BJ.svg",
    "capital": "پورتو نووو",
    "calling_code": 229,
    "continent": "آفریقا",
    "lat": 9.5,
    "long": 2.25
  },
  {
    "id": 64,
    "iso2": "bt",
    "iso3": "btn",
    "name": "بوتان",
    "flag": "https://www.world-api.ir/v1/countries/flag/BT.svg",
    "capital": "تیمفو",
    "calling_code": 975,
    "continent": "آسیا",
    "lat": 27.5,
    "long": 90.5
  },
  {
    "id": 68,
    "iso2": "bo",
    "iso3": "bol",
    "name": "بولیوی",
    "flag": "https://www.world-api.ir/v1/countries/flag/BO.svg",
    "capital": "سوکره",
    "calling_code": 591,
    "continent": "آمریکای جنوبی",
    "lat": -17.0,
    "long": -65.0
  },
  {
    "id": 70,
    "iso2": "ba",
    "iso3": "bih",
    "name": "بوسنی و هرزگوین",
    "flag": "https://www.world-api.ir/v1/countries/flag/BA.svg",
    "capital": "سارایوو",
    "calling_code": 387,
    "continent": "اروپا",
    "lat": 44.0,
    "long": 18.0
  },
  {
    "id": 72,
    "iso2": "bw",
    "iso3": "bwa",
    "name": "بوتسوانا",
    "flag": "https://www.world-api.ir/v1/countries/flag/BW.svg",
    "capital": "گابورون",
    "calling_code": 267,
    "continent": "آفریقا",
    "lat": -22.0,
    "long": 24.0
  },
  {
    "id": 76,
    "iso2": "br",
    "iso3": "bra",
    "name": "برزیل",
    "flag": "https://www.world-api.ir/v1/countries/flag/BR.svg",
    "capital": "برازیلیا",
    "calling_code": 55,
    "continent": "آمریکای جنوبی",
    "lat": -10.0,
    "long": -55.0
  },
  {
    "id": 96,
    "iso2": "bn",
    "iso3": "brn",
    "name": "برونئی",
    "flag": "https://www.world-api.ir/v1/countries/flag/BN.svg",
    "capital": "بندر سری بگاوان",
    "calling_code": 673,
    "continent": "آسیا",
    "lat": 4.5,
    "long": 114.6667
  },
  {
    "id": 100,
    "iso2": "bg",
    "iso3": "bgr",
    "name": "بلغارستان",
    "flag": "https://www.world-api.ir/v1/countries/flag/BG.svg",
    "capital": "صوفیه",
    "calling_code": 359,
    "continent": "اروپا",
    "lat": 43.0,
    "long": 25.0
  },
  {
    "id": 854,
    "iso2": "bf",
    "iso3": "bfa",
    "name": "بورکینافاسو",
    "flag": "https://www.world-api.ir/v1/countries/flag/BF.svg",
    "capital": "واگادوگو",
    "calling_code": 226,
    "continent": "آفریقا",
    "lat": 13.0,
    "long": -2.0
  },
  {
    "id": 108,
    "iso2": "bi",
    "iso3": "bdi",
    "name": "بوروندی",
    "flag": "https://www.world-api.ir/v1/countries/flag/BI.svg",
    "capital": "گیتگا",
    "calling_code": 257,
    "continent": "آفریقا",
    "lat": -3.5,
    "long": 30.0
  },
  {
    "id": 116,
    "iso2": "kh",
    "iso3": "khm",
    "name": "کامبوج",
    "flag": "https://www.world-api.ir/v1/countries/flag/KH.svg",
    "capital": "پنوم‌پن",
    "calling_code": 855,
    "continent": "آسیا",
    "lat": 13.0,
    "long": 105.0
  },
  {
    "id": 120,
    "iso2": "cm",
    "iso3": "cmr",
    "name": "کامرون",
    "flag": "https://www.world-api.ir/v1/countries/flag/CM.svg",
    "capital": "یائونده",
    "calling_code": 237,
    "continent": "آفریقا",
    "lat": 6.0,
    "long": 12.0
  },
  {
    "id": 124,
    "iso2": "ca",
    "iso3": "can",
    "name": "کانادا",
    "flag": "https://www.world-api.ir/v1/countries/flag/CA.svg",
    "capital": "اتاوا",
    "calling_code": 1,
    "continent": "آمریکای شمالی",
    "lat": 60.0,
    "long": -95.0
  },
  {
    "id": 132,
    "iso2": "cv",
    "iso3": "cpv",
    "name": "کیپ ورد",
    "flag": "https://www.world-api.ir/v1/countries/flag/CV.svg",
    "capital": "پرایا",
    "calling_code": 238,
    "continent": "آفریقا",
    "lat": 16.0,
    "long": -24.0
  },
  {
    "id": 140,
    "iso2": "cf",
    "iso3": "caf",
    "name": "جمهوری آفریقای مرکزی",
    "flag": "https://www.world-api.ir/v1/countries/flag/CF.svg",
    "capital": "بانگی",
    "calling_code": 236,
    "continent": "آفریقا",
    "lat": 7.0,
    "long": 21.0
  },
  {
    "id": 148,
    "iso2": "td",
    "iso3": "tcd",
    "name": "چاد",
    "flag": "https://www.world-api.ir/v1/countries/flag/TD.svg",
    "capital": "انجامنا",
    "calling_code": 235,
    "continent": "آفریقا",
    "lat": 15.0,
    "long": 19.0
  },
  {
    "id": 152,
    "iso2": "cl",
    "iso3": "chl",
    "name": "شیلی",
    "flag": "https://www.world-api.ir/v1/countries/flag/CL.svg",
    "capital": "سانتیاگو",
    "calling_code": 56,
    "continent": "آمریکای جنوبی",
    "lat": -30.0,
    "long": -71.0
  },
  {
    "id": 156,
    "iso2": "cn",
    "iso3": "chn",
    "name": "چین",
    "flag": "https://www.world-api.ir/v1/countries/flag/CN.svg",
    "capital": "پکن",
    "calling_code": 86,
    "continent": "آسیا",
    "lat": 35.0,
    "long": 105.0
  },
  {
    "id": 170,
    "iso2": "co",
    "iso3": "col",
    "name": "کلمبیا",
    "flag": "https://www.world-api.ir/v1/countries/flag/CO.svg",
    "capital": "بوگوتا",
    "calling_code": 57,
    "continent": "آمریکای جنوبی",
    "lat": 4.0,
    "long": -72.0
  },
  {
    "id": 174,
    "iso2": "km",
    "iso3": "com",
    "name": "کومور",
    "flag": "https://www.world-api.ir/v1/countries/flag/KM.svg",
    "capital": "مورونی",
    "calling_code": 269,
    "continent": "آفریقا",
    "lat": -12.1667,
    "long": 44.25
  },
  {
    "id": 178,
    "iso2": "cg",
    "iso3": "cog",
    "name": "جمهوری کنگو",
    "flag": "https://www.world-api.ir/v1/countries/flag/CG.svg",
    "capital": "برازاویل",
    "calling_code": 242,
    "continent": "آفریقا",
    "lat": -1.0,
    "long": 15.0
  },
  {
    "id": 180,
    "iso2": "cd",
    "iso3": "cod",
    "name": "جمهوری دموکراتیک کنگو",
    "flag": "https://www.world-api.ir/v1/countries/flag/CD.svg",
    "capital": "کینشاسا",
    "calling_code": 243,
    "continent": "آفریقا",
    "lat": 0.0,
    "long": 25.0
  },
  {
    "id": 188,
    "iso2": "cr",
    "iso3": "cri",
    "name": "کاستاریکا",
    "flag": "https://www.world-api.ir/v1/countries/flag/CR.svg",
    "capital": "سن خوزه",
    "calling_code": 506,
    "continent": "آمریکای شمالی",
    "lat": 10.0,
    "long": -84.0
  },
  {
    "id": 384,
    "iso2": "ci",
    "iso3": "civ",
    "name": "ساحل عاج",
    "flag": "https://www.world-api.ir/v1/countries/flag/CI.svg",
    "capital": "یاموسوکرو",
    "calling_code": 225,
    "continent": "آفریقا",
    "lat": 8.0,
    "long": -5.0
  },
  {
    "id": 191,
    "iso2": "hr",
    "iso3": "hrv",
    "name": "کرواسی",
    "flag": "https://www.world-api.ir/v1/countries/flag/HR.svg",
    "capital": "زاگرب",
    "calling_code": 385,
    "continent": "اروپا",
    "lat": 45.1667,
    "long": 15.5
  },
  {
    "id": 192,
    "iso2": "cu",
    "iso3": "cub",
    "name": "کوبا",
    "flag": "https://www.world-api.ir/v1/countries/flag/CU.svg",
    "capital": "هاوانا",
    "calling_code": 53,
    "continent": "آمریکای شمالی",
    "lat": 21.5,
    "long": -80.0
  },
  {
    "id": 196,
    "iso2": "cy",
    "iso3": "cyp",
    "name": "قبرس",
    "flag": "https://www.world-api.ir/v1/countries/flag/CY.svg",
    "capital": "نیکوزیا",
    "calling_code": 357,
    "continent": "آسیا",
    "lat": 35.0,
    "long": 33.0
  },
  {
    "id": 203,
    "iso2": "cz",
    "iso3": "cze",
    "name": "جمهوری چک",
    "flag": "https://www.world-api.ir/v1/countries/flag/CZ.svg",
    "capital": "پراگ",
    "calling_code": 420,
    "continent": "اروپا",
    "lat": 49.75,
    "long": 15.5
  },
  {
    "id": 208,
    "iso2": "dk",
    "iso3": "dnk",
    "name": "دانمارک",
    "flag": "https://www.world-api.ir/v1/countries/flag/DK.svg",
    "capital": "کپنهاگ",
    "calling_code": 45,
    "continent": "اروپا",
    "lat": 56.0,
    "long": 10.0
  },
  {
    "id": 262,
    "iso2": "dj",
    "iso3": "dji",
    "name": "جیبوتی",
    "flag": "https://www.world-api.ir/v1/countries/flag/DJ.svg",
    "capital": "جیبوتی",
    "calling_code": 253,
    "continent": "آفریقا",
    "lat": 11.5,
    "long": 43.0
  },
  {
    "id": 212,
    "iso2": "dm",
    "iso3": "dma",
    "name": "دومینیکا",
    "flag": "https://www.world-api.ir/v1/countries/flag/DM.svg",
    "capital": "روسو",
    "calling_code": 1,
    "continent": "آمریکای شمالی",
    "lat": 15.4167,
    "long": -61.3333
  },
  {
    "id": 214,
    "iso2": "do",
    "iso3": "dom",
    "name": "جمهوری دومینیکن",
    "flag": "https://www.world-api.ir/v1/countries/flag/DO.svg",
    "capital": "سانتو دومینگو",
    "calling_code": 1,
    "continent": "آمریکای شمالی",
    "lat": 19.0,
    "long": -70.6667
  },
  {
    "id": 218,
    "iso2": "ec",
    "iso3": "ecu",
    "name": "اکوادور",
    "flag": "https://www.world-api.ir/v1/countries/flag/EC.svg",
    "capital": "کیتو",
    "calling_code": 593,
    "continent": "آمریکای جنوبی",
    "lat": -2.0,
    "long": -77.5
  },
  {
    "id": 818,
    "iso2": "eg",
    "iso3": "egy",
    "name": "مصر",
    "flag": "https://www.world-api.ir/v1/countries/flag/EG.svg",
    "capital": "قاهره",
    "calling_code": 20,
    "continent": "آفریقا",
    "lat": 27.0,
    "long": 30.0
  },
  {
    "id": 222,
    "iso2": "sv",
    "iso3": "slv",
    "name": "السالوادور",
    "flag": "https://www.world-api.ir/v1/countries/flag/SV.svg",
    "capital": "سان سالوادور",
    "calling_code": 503,
    "continent": "آمریکای شمالی",
    "lat": 13.8333,
    "long": -88.9167
  },
  {
    "id": 226,
    "iso2": "gq",
    "iso3": "gnq",
    "name": "گینه استوایی",
    "flag": "https://www.world-api.ir/v1/countries/flag/GQ.svg",
    "capital": "مالابو",
    "calling_code": 240,
    "continent": "آفریقا",
    "lat": 2.0,
    "long": 10.0
  },
  {
    "id": 232,
    "iso2": "er",
    "iso3": "eri",
    "name": "اریتره",
    "flag": "https://www.world-api.ir/v1/countries/flag/ER.svg",
    "capital": "اسمره",
    "calling_code": 291,
    "continent": "آفریقا",
    "lat": 15.0,
    "long": 39.0
  },
  {
    "id": 233,
    "iso2": "ee",
    "iso3": "est",
    "name": "استونی",
    "flag": "https://www.world-api.ir/v1/countries/flag/EE.svg",
    "capital": "تالین",
    "calling_code": 372,
    "continent": "اروپا",
    "lat": 59.0,
    "long": 26.0
  },
  {
    "id": 231,
    "iso2": "et",
    "iso3": "eth",
    "name": "اتیوپی",
    "flag": "https://www.world-api.ir/v1/countries/flag/ET.svg",
    "capital": "آدیس آبابا",
    "calling_code": 251,
    "continent": "آفریقا",
    "lat": 8.0,
    "long": 38.0
  },
  {
    "id": 242,
    "iso2": "fj",
    "iso3": "fji",
    "name": "فیجی",
    "flag": "https://www.world-api.ir/v1/countries/flag/FJ.svg",
    "capital": "سووا",
    "calling_code": 679,
    "continent": "استرالیا",
    "lat": -18.0,
    "long": 175.0
  },
  {
    "id": 246,
    "iso2": "fi",
    "iso3": "fin",
    "name": "فنلاند",
    "flag": "https://www.world-api.ir/v1/countries/flag/FI.svg",
    "capital": "هلسینکی",
    "calling_code": 358,
    "continent": "اروپا",
    "lat": 64.0,
    "long": 26.0
  },
  {
    "id": 250,
    "iso2": "fr",
    "iso3": "fra",
    "name": "فرانسه",
    "flag": "https://www.world-api.ir/v1/countries/flag/FR.svg",
    "capital": "پاریس",
    "calling_code": 33,
    "continent": "اروپا",
    "lat": 46.0,
    "long": 2.0
  },
  {
    "id": 266,
    "iso2": "ga",
    "iso3": "gab",
    "name": "گابن",
    "flag": "https://www.world-api.ir/v1/countries/flag/GA.svg",
    "capital": "لیبرویل",
    "calling_code": 241,
    "continent": "آفریقا",
    "lat": -1.0,
    "long": 11.75
  },
  {
    "id": 270,
    "iso2": "gm",
    "iso3": "gmb",
    "name": "گامبیا",
    "flag": "https://www.world-api.ir/v1/countries/flag/GM.svg",
    "capital": "بانجول",
    "calling_code": 220,
    "continent": "آفریقا",
    "lat": 13.4667,
    "long": -16.5667
  },
  {
    "id": 268,
    "iso2": "ge",
    "iso3": "geo",
    "name": "گرجستان",
    "flag": "https://www.world-api.ir/v1/countries/flag/GE.svg",
    "capital": "تفلیس",
    "calling_code": 995,
    "continent": "آسیا",
    "lat": 42.0,
    "long": 43.5
  },
  {
    "id": 276,
    "iso2": "de",
    "iso3": "deu",
    "name": "آلمان",
    "flag": "https://www.world-api.ir/v1/countries/flag/DE.svg",
    "capital": "برلین",
    "calling_code": 49,
    "continent": "اروپا",
    "lat": 51.0,
    "long": 9.0
  },
  {
    "id": 288,
    "iso2": "gh",
    "iso3": "gha",
    "name": "غنا",
    "flag": "https://www.world-api.ir/v1/countries/flag/GH.svg",
    "capital": "آکرا",
    "calling_code": 233,
    "continent": "آفریقا",
    "lat": 8.0,
    "long": -2.0
  },
  {
    "id": 300,
    "iso2": "gr",
    "iso3": "grc",
    "name": "یونان",
    "flag": "https://www.world-api.ir/v1/countries/flag/GR.svg",
    "capital": "آتن",
    "calling_code": 30,
    "continent": "اروپا",
    "lat": 39.0,
    "long": 22.0
  },
  {
    "id": 308,
    "iso2": "gd",
    "iso3": "grd",
    "name": "گرنادا",
    "flag": "https://www.world-api.ir/v1/countries/flag/GD.svg",
    "capital": "سنت جورج",
    "calling_code": 1,
    "continent": "آمریکای شمالی",
    "lat": 12.1167,
    "long": -61.6667
  },
  {
    "id": 320,
    "iso2": "gt",
    "iso3": "gtm",
    "name": "گواتمالا",
    "flag": "https://www.world-api.ir/v1/countries/flag/GT.svg",
    "capital": "گواتمالا سیتی",
    "calling_code": 502,
    "continent": "آمریکای شمالی",
    "lat": 15.5,
    "long": -90.25
  },
  {
    "id": 324,
    "iso2": "gn",
    "iso3": "gin",
    "name": "گینه",
    "flag": "https://www.world-api.ir/v1/countries/flag/GN.svg",
    "capital": "کوناکری",
    "calling_code": 224,
    "continent": "آفریقا",
    "lat": 11.0,
    "long": -10.0
  },
  {
    "id": 624,
    "iso2": "gw",
    "iso3": "gnb",
    "name": "گینه بیسائو",
    "flag": "https://www.world-api.ir/v1/countries/flag/GW.svg",
    "capital": "بیسائو",
    "calling_code": 245,
    "continent": "آفریقا",
    "lat": 12.0,
    "long": -15.0
  },
  {
    "id": 328,
    "iso2": "gy",
    "iso3": "guy",
    "name": "گویان",
    "flag": "https://www.world-api.ir/v1/countries/flag/GY.svg",
    "capital": "جورج‌تاون",
    "calling_code": 592,
    "continent": "آمریکای جنوبی",
    "lat": 5.0,
    "long": -59.0
  },
  {
    "id": 332,
    "iso2": "ht",
    "iso3": "hti",
    "name": "هائیتی",
    "flag": "https://www.world-api.ir/v1/countries/flag/HT.svg",
    "capital": "پورتو پرنس",
    "calling_code": 509,
    "continent": "آمریکای شمالی",
    "lat": 19.0,
    "long": -72.4167
  },
  {
    "id": 340,
    "iso2": "hn",
    "iso3": "hnd",
    "name": "هندوراس",
    "flag": "https://www.world-api.ir/v1/countries/flag/HN.svg",
    "capital": "تگوسیگالپا",
    "calling_code": 504,
    "continent": "آمریکای شمالی",
    "lat": 15.0,
    "long": -86.5
  },
  {
    "id": 348,
    "iso2": "hu",
    "iso3": "hun",
    "name": "مجارستان",
    "flag": "https://www.world-api.ir/v1/countries/flag/HU.svg",
    "capital": "بوداپست",
    "calling_code": 36,
    "continent": "اروپا",
    "lat": 47.0,
    "long": 20.0
  },
  {
    "id": 352,
    "iso2": "is",
    "iso3": "isl",
    "name": "ایسلند",
    "flag": "https://www.world-api.ir/v1/countries/flag/IS.svg",
    "capital": "ریکیاویک",
    "calling_code": 354,
    "continent": "اروپا",
    "lat": 65.0,
    "long": -18.0
  },
  {
    "id": 356,
    "iso2": "in",
    "iso3": "ind",
    "name": "هند",
    "flag": "https://www.world-api.ir/v1/countries/flag/IN.svg",
    "capital": "دهلی نو",
    "calling_code": 91,
    "continent": "آسیا",
    "lat": 20.0,
    "long": 77.0
  },
  {
    "id": 360,
    "iso2": "id",
    "iso3": "idn",
    "name": "اندونزی",
    "flag": "https://www.world-api.ir/v1/countries/flag/ID.svg",
    "capital": "جاکارتا",
    "calling_code": 62,
    "continent": "آسیا",
    "lat": -5.0,
    "long": 120.0
  },
  {
    "id": 364,
    "iso2": "ir",
    "iso3": "irn",
    "name": "ایران",
    "flag": "https://www.world-api.ir/v1/countries/flag/IR.svg",
    "capital": "تهران",
    "calling_code": 98,
    "continent": "آسیا",
    "lat": 32.0,
    "long": 53.0
  },
  {
    "id": 368,
    "iso2": "iq",
    "iso3": "irq",
    "name": "عراق",
    "flag": "https://www.world-api.ir/v1/countries/flag/IQ.svg",
    "capital": "بغداد",
    "calling_code": 964,
    "continent": "آسیا",
    "lat": 33.0,
    "long": 44.0
  },
  {
    "id": 372,
    "iso2": "ie",
    "iso3": "irl",
    "name": "جمهوری ایرلند",
    "flag": "https://www.world-api.ir/v1/countries/flag/IE.svg",
    "capital": "دوبلین",
    "calling_code": 353,
    "continent": "اروپا",
    "lat": 53.0,
    "long": -8.0
  },
  {
    "id": 376,
    "iso2": "il",
    "iso3": "isr",
    "name": "اسرائیل",
    "flag": "https://www.world-api.ir/v1/countries/flag/IL.svg",
    "capital": "اورشلیم",
    "calling_code": 972,
    "continent": "آسیا",
    "lat": 31.5,
    "long": 34.75
  },
  {
    "id": 380,
    "iso2": "it",
    "iso3": "ita",
    "name": "ایتالیا",
    "flag": "https://www.world-api.ir/v1/countries/flag/IT.svg",
    "capital": "رم",
    "calling_code": 39,
    "continent": "اروپا",
    "lat": 42.8333,
    "long": 12.8333
  },
  {
    "id": 388,
    "iso2": "jm",
    "iso3": "jam",
    "name": "جامائیکا",
    "flag": "https://www.world-api.ir/v1/countries/flag/JM.svg",
    "capital": "کینگستون",
    "calling_code": 1,
    "continent": "آمریکای شمالی",
    "lat": 18.25,
    "long": -77.5
  },
  {
    "id": 392,
    "iso2": "jp",
    "iso3": "jpn",
    "name": "ژاپن",
    "flag": "https://www.world-api.ir/v1/countries/flag/JP.svg",
    "capital": "توکیو",
    "calling_code": 81,
    "continent": "آسیا",
    "lat": 36.0,
    "long": 138.0
  },
  {
    "id": 400,
    "iso2": "jo",
    "iso3": "jor",
    "name": "اردن",
    "flag": "https://www.world-api.ir/v1/countries/flag/JO.svg",
    "capital": "عمان",
    "calling_code": 962,
    "continent": "آسیا",
    "lat": 31.0,
    "long": 36.0
  },
  {
    "id": 398,
    "iso2": "kz",
    "iso3": "kaz",
    "name": "قزاقستان",
    "flag": "https://www.world-api.ir/v1/countries/flag/KZ.svg",
    "capital": "آستانه",
    "calling_code": 7,
    "continent": "آسیا",
    "lat": 48.0,
    "long": 68.0
  },
  {
    "id": 404,
    "iso2": "ke",
    "iso3": "ken",
    "name": "کنیا",
    "flag": "https://www.world-api.ir/v1/countries/flag/KE.svg",
    "capital": "نایروبی",
    "calling_code": 254,
    "continent": "آفریقا",
    "lat": 1.0,
    "long": 38.0
  },
  {
    "id": 296,
    "iso2": "ki",
    "iso3": "kir",
    "name": "کیریباتی",
    "flag": "https://www.world-api.ir/v1/countries/flag/KI.svg",
    "capital": "تاراوا",
    "calling_code": 686,
    "continent": "استرالیا",
    "lat": 1.4167,
    "long": 173.0
  },
  {
    "id": 408,
    "iso2": "kp",
    "iso3": "prk",
    "name": "کره شمالی",
    "flag": "https://www.world-api.ir/v1/countries/flag/KP.svg",
    "capital": "پیونگ‌یانگ",
    "calling_code": 850,
    "continent": "آسیا",
    "lat": 40.0,
    "long": 127.0
  },
  {
    "id": 410,
    "iso2": "kr",
    "iso3": "kor",
    "name": "کره جنوبی",
    "flag": "https://www.world-api.ir/v1/countries/flag/KR.svg",
    "capital": "سئول",
    "calling_code": 82,
    "continent": "آسیا",
    "lat": 37.0,
    "long": 127.5
  },
  {
    "id": 414,
    "iso2": "kw",
    "iso3": "kwt",
    "name": "کویت",
    "flag": "https://www.world-api.ir/v1/countries/flag/KW.svg",
    "capital": "کویت",
    "calling_code": 965,
    "continent": "آسیا",
    "lat": 29.3375,
    "long": 47.6581
  },
  {
    "id": 417,
    "iso2": "kg",
    "iso3": "kgz",
    "name": "قرقیزستان",
    "flag": "https://www.world-api.ir/v1/countries/flag/KG.svg",
    "capital": "بیشکک",
    "calling_code": 996,
    "continent": "آسیا",
    "lat": 41.0,
    "long": 75.0
  },
  {
    "id": 418,
    "iso2": "la",
    "iso3": "lao",
    "name": "لائوس",
    "flag": "https://www.world-api.ir/v1/countries/flag/LA.svg",
    "capital": "وین‌تیان",
    "calling_code": 856,
    "continent": "آسیا",
    "lat": 18.0,
    "long": 105.0
  },
  {
    "id": 428,
    "iso2": "lv",
    "iso3": "lva",
    "name": "لتونی",
    "flag": "https://www.world-api.ir/v1/countries/flag/LV.svg",
    "capital": "ریگا",
    "calling_code": 371,
    "continent": "اروپا",
    "lat": 57.0,
    "long": 25.0
  },
  {
    "id": 422,
    "iso2": "lb",
    "iso3": "lbn",
    "name": "لبنان",
    "flag": "https://www.world-api.ir/v1/countries/flag/LB.svg",
    "capital": "بیروت",
    "calling_code": 961,
    "continent": "آسیا",
    "lat": 33.8333,
    "long": 35.8333
  },
  {
    "id": 426,
    "iso2": "ls",
    "iso3": "lso",
    "name": "لسوتو",
    "flag": "https://www.world-api.ir/v1/countries/flag/LS.svg",
    "capital": "ماسرو",
    "calling_code": 266,
    "continent": "آفریقا",
    "lat": -29.5,
    "long": 28.5
  },
  {
    "id": 430,
    "iso2": "lr",
    "iso3": "lbr",
    "name": "لیبریا",
    "flag": "https://www.world-api.ir/v1/countries/flag/LR.svg",
    "capital": "مونروویا",
    "calling_code": 231,
    "continent": "آفریقا",
    "lat": 6.5,
    "long": -9.5
  },
  {
    "id": 434,
    "iso2": "ly",
    "iso3": "lby",
    "name": "لیبی",
    "flag": "https://www.world-api.ir/v1/countries/flag/LY.svg",
    "capital": "طرابلس",
    "calling_code": 218,
    "continent": "آفریقا",
    "lat": 25.0,
    "long": 17.0
  },
  {
    "id": 438,
    "iso2": "li",
    "iso3": "lie",
    "name": "لیختن‌اشتاین",
    "flag": "https://www.world-api.ir/v1/countries/flag/LI.svg",
    "capital": "فادوتس",
    "calling_code": 423,
    "continent": "اروپا",
    "lat": 47.1667,
    "long": 9.5333
  },
  {
    "id": 440,
    "iso2": "lt",
    "iso3": "ltu",
    "name": "لیتوانی",
    "flag": "https://www.world-api.ir/v1/countries/flag/LT.svg",
    "capital": "ویلنیوس",
    "calling_code": 370,
    "continent": "اروپا",
    "lat": 56.0,
    "long": 24.0
  },
  {
    "id": 442,
    "iso2": "lu",
    "iso3": "lux",
    "name": "لوکزامبورگ",
    "flag": "https://www.world-api.ir/v1/countries/flag/LU.svg",
    "capital": "لوکزامبورگ",
    "calling_code": 352,
    "continent": "اروپا",
    "lat": 49.75,
    "long": 6.1667
  },
  {
    "id": 807,
    "iso2": "mk",
    "iso3": "mkd",
    "name": "مقدونیه شمالی",
    "flag": "https://www.world-api.ir/v1/countries/flag/MK.svg",
    "capital": "اسکوپیه",
    "calling_code": 389,
    "continent": "اروپا",
    "lat": 41.8333,
    "long": 22.0
  },
  {
    "id": 450,
    "iso2": "mg",
    "iso3": "mdg",
    "name": "ماداگاسکار",
    "flag": "https://www.world-api.ir/v1/countries/flag/MG.svg",
    "capital": "آنتاناناریوو",
    "calling_code": 261,
    "continent": "آفریقا",
    "lat": -20.0,
    "long": 47.0
  },
  {
    "id": 454,
    "iso2": "mw",
    "iso3": "mwi",
    "name": "مالاوی",
    "flag": "https://www.world-api.ir/v1/countries/flag/MW.svg",
    "capital": "لیلانگوه",
    "calling_code": 265,
    "continent": "آفریقا",
    "lat": -13.5,
    "long": 34.0
  },
  {
    "id": 458,
    "iso2": "my",
    "iso3": "mys",
    "name": "مالزی",
    "flag": "https://www.world-api.ir/v1/countries/flag/MY.svg",
    "capital": "کوالالامپور",
    "calling_code": 60,
    "continent": "آسیا",
    "lat": 2.5,
    "long": 112.5
  },
  {
    "id": 462,
    "iso2": "mv",
    "iso3": "mdv",
    "name": "مالدیو",
    "flag": "https://www.world-api.ir/v1/countries/flag/MV.svg",
    "capital": "ماله",
    "calling_code": 960,
    "continent": "آسیا",
    "lat": 3.25,
    "long": 73.0
  },
  {
    "id": 466,
    "iso2": "ml",
    "iso3": "mli",
    "name": "مالی",
    "flag": "https://www.world-api.ir/v1/countries/flag/ML.svg",
    "capital": "باماکو",
    "calling_code": 223,
    "continent": "آفریقا",
    "lat": 17.0,
    "long": -4.0
  },
  {
    "id": 470,
    "iso2": "mt",
    "iso3": "mlt",
    "name": "مالت",
    "flag": "https://www.world-api.ir/v1/countries/flag/MT.svg",
    "capital": "والتا",
    "calling_code": 356,
    "continent": "اروپا",
    "lat": 35.8333,
    "long": 14.5833
  },
  {
    "id": 584,
    "iso2": "mh",
    "iso3": "mhl",
    "name": "جزایر مارشال",
    "flag": "https://www.world-api.ir/v1/countries/flag/MH.svg",
    "capital": "ماجورو",
    "calling_code": 692,
    "continent": "استرالیا",
    "lat": 9.0,
    "long": 168.0
  },
  {
    "id": 478,
    "iso2": "mr",
    "iso3": "mrt",
    "name": "موریتانی",
    "flag": "https://www.world-api.ir/v1/countries/flag/MR.svg",
    "capital": "نواکشوت",
    "calling_code": 222,
    "continent": "آفریقا",
    "lat": 20.0,
    "long": -12.0
  },
  {
    "id": 480,
    "iso2": "mu",
    "iso3": "mus",
    "name": "موریس",
    "flag": "https://www.world-api.ir/v1/countries/flag/MU.svg",
    "capital": "پورت لوئیس",
    "calling_code": 230,
    "continent": "آفریقا",
    "lat": -20.2833,
    "long": 57.55
  },
  {
    "id": 484,
    "iso2": "mx",
    "iso3": "mex",
    "name": "مکزیک",
    "flag": "https://www.world-api.ir/v1/countries/flag/MX.svg",
    "capital": "مکزیکوسیتی",
    "calling_code": 52,
    "continent": "آمریکای شمالی",
    "lat": 23.0,
    "long": -102.0
  },
  {
    "id": 583,
    "iso2": "fm",
    "iso3": "fsm",
    "name": "ایالات فدرال میکرونزی",
    "flag": "https://www.world-api.ir/v1/countries/flag/FM.svg",
    "capital": "پالیكير",
    "calling_code": 691,
    "continent": "استرالیا",
    "lat": 6.9167,
    "long": 158.25
  },
  {
    "id": 498,
    "iso2": "md",
    "iso3": "mda",
    "name": "مولدووا",
    "flag": "https://www.world-api.ir/v1/countries/flag/MD.svg",
    "capital": "کیشیناو",
    "calling_code": 373,
    "continent": "اروپا",
    "lat": 47.0,
    "long": 29.0
  },
  {
    "id": 492,
    "iso2": "mc",
    "iso3": "mco",
    "name": "موناکو",
    "flag": "https://www.world-api.ir/v1/countries/flag/MC.svg",
    "capital": "موناکو",
    "calling_code": 377,
    "continent": "اروپا",
    "lat": 43.7333,
    "long": 7.4
  },
  {
    "id": 496,
    "iso2": "mn",
    "iso3": "mng",
    "name": "مغولستان",
    "flag": "https://www.world-api.ir/v1/countries/flag/MN.svg",
    "capital": "اولان‌باتور",
    "calling_code": 976,
    "continent": "آسیا",
    "lat": 46.0,
    "long": 105.0
  },
  {
    "id": 499,
    "iso2": "me",
    "iso3": "mne",
    "name": "مونته‌نگرو",
    "flag": "https://www.world-api.ir/v1/countries/flag/ME.svg",
    "capital": "پودگوریتسا",
    "calling_code": 382,
    "continent": "اروپا",
    "lat": 42.0,
    "long": 19.0
  },
  {
    "id": 504,
    "iso2": "ma",
    "iso3": "mar",
    "name": "مراکش",
    "flag": "https://www.world-api.ir/v1/countries/flag/MA.svg",
    "capital": "رباط",
    "calling_code": 212,
    "continent": "آفریقا",
    "lat": 32.0,
    "long": -5.0
  },
  {
    "id": 508,
    "iso2": "mz",
    "iso3": "moz",
    "name": "موزامبیک",
    "flag": "https://www.world-api.ir/v1/countries/flag/MZ.svg",
    "capital": "ماپوتو",
    "calling_code": 258,
    "continent": "آفریقا",
    "lat": -18.25,
    "long": 35.0
  },
  {
    "id": 104,
    "iso2": "mm",
    "iso3": "mmr",
    "name": "میانمار",
    "flag": "https://www.world-api.ir/v1/countries/flag/MM.svg",
    "capital": "نایپیداو",
    "calling_code": 95,
    "continent": "آسیا",
    "lat": 22.0,
    "long": 98.0
  },
  {
    "id": 516,
    "iso2": "na",
    "iso3": "nam",
    "name": "نامیبیا",
    "flag": "https://www.world-api.ir/v1/countries/flag/NA.svg",
    "capital": "ویندهوک",
    "calling_code": 264,
    "continent": "آفریقا",
    "lat": 22.9576,
    "long": 18.4904
  },
  {
    "id": 520,
    "iso2": "nr",
    "iso3": "nru",
    "name": "نائورو",
    "flag": "https://www.world-api.ir/v1/countries/flag/NR.svg",
    "capital": "یارن",
    "calling_code": 674,
    "continent": "استرالیا",
    "lat": -0.5333,
    "long": 166.9167
  },
  {
    "id": 524,
    "iso2": "np",
    "iso3": "npl",
    "name": "نپال",
    "flag": "https://www.world-api.ir/v1/countries/flag/NP.svg",
    "capital": "کاتماندو",
    "calling_code": 977,
    "continent": "آسیا",
    "lat": 28.0,
    "long": 84.0
  },
  {
    "id": 528,
    "iso2": "nl",
    "iso3": "nld",
    "name": "هلند",
    "flag": "https://www.world-api.ir/v1/countries/flag/NL.svg",
    "capital": "آمستردام",
    "calling_code": 31,
    "continent": "اروپا",
    "lat": 52.5,
    "long": 5.75
  },
  {
    "id": 554,
    "iso2": "nz",
    "iso3": "nzl",
    "name": "نیوزیلند",
    "flag": "https://www.world-api.ir/v1/countries/flag/NZ.svg",
    "capital": "ولینگتون",
    "calling_code": 64,
    "continent": "استرالیا",
    "lat": -41.0,
    "long": 174.0
  },
  {
    "id": 558,
    "iso2": "ni",
    "iso3": "nic",
    "name": "نیکاراگوئه",
    "flag": "https://www.world-api.ir/v1/countries/flag/NI.svg",
    "capital": "ماناگوا",
    "calling_code": 505,
    "continent": "آمریکای شمالی",
    "lat": 13.0,
    "long": -85.0
  },
  {
    "id": 562,
    "iso2": "ne",
    "iso3": "ner",
    "name": "نیجر",
    "flag": "https://www.world-api.ir/v1/countries/flag/NE.svg",
    "capital": "نیامی",
    "calling_code": 227,
    "continent": "آفریقا",
    "lat": 16.0,
    "long": 8.0
  },
  {
    "id": 566,
    "iso2": "ng",
    "iso3": "nga",
    "name": "نیجریه",
    "flag": "https://www.world-api.ir/v1/countries/flag/NG.svg",
    "capital": "آبوجا",
    "calling_code": 234,
    "continent": "آفریقا",
    "lat": 10.0,
    "long": 8.0
  },
  {
    "id": 578,
    "iso2": "no",
    "iso3": "nor",
    "name": "نروژ",
    "flag": "https://www.world-api.ir/v1/countries/flag/NO.svg",
    "capital": "اسلو",
    "calling_code": 47,
    "continent": "اروپا",
    "lat": 62.0,
    "long": 10.0
  },
  {
    "id": 512,
    "iso2": "om",
    "iso3": "omn",
    "name": "عمان",
    "flag": "https://www.world-api.ir/v1/countries/flag/OM.svg",
    "capital": "مسقط",
    "calling_code": 968,
    "continent": "آسیا",
    "lat": 21.0,
    "long": 57.0
  },
  {
    "id": 586,
    "iso2": "pk",
    "iso3": "pak",
    "name": "پاکستان",
    "flag": "https://www.world-api.ir/v1/countries/flag/PK.svg",
    "capital": "اسلام‌آباد",
    "calling_code": 92,
    "continent": "آسیا",
    "lat": 30.0,
    "long": 70.0
  },
  {
    "id": 585,
    "iso2": "pw",
    "iso3": "plw",
    "name": "پالائو",
    "flag": "https://www.world-api.ir/v1/countries/flag/PW.svg",
    "capital": "نگرولمود",
    "calling_code": 680,
    "continent": "استرالیا",
    "lat": 7.5,
    "long": 134.5
  },
  {
    "id": 591,
    "iso2": "pa",
    "iso3": "pan",
    "name": "پاناما",
    "flag": "https://www.world-api.ir/v1/countries/flag/PA.svg",
    "capital": "پاناماسیتی",
    "calling_code": 507,
    "continent": "آمریکای شمالی",
    "lat": 9.0,
    "long": -80.0
  },
  {
    "id": 598,
    "iso2": "pg",
    "iso3": "png",
    "name": "پاپوآ گینه نو",
    "flag": "https://www.world-api.ir/v1/countries/flag/PG.svg",
    "capital": "پورت مورسبی",
    "calling_code": 675,
    "continent": "استرالیا",
    "lat": -6.0,
    "long": 147.0
  },
  {
    "id": 600,
    "iso2": "py",
    "iso3": "pry",
    "name": "پاراگوئه",
    "flag": "https://www.world-api.ir/v1/countries/flag/PY.svg",
    "capital": "آسونسیون",
    "calling_code": 595,
    "continent": "آمریکای جنوبی",
    "lat": -23.0,
    "long": -58.0
  },
  {
    "id": 604,
    "iso2": "pe",
    "iso3": "per",
    "name": "پرو",
    "flag": "https://www.world-api.ir/v1/countries/flag/PE.svg",
    "capital": "لیما",
    "calling_code": 51,
    "continent": "آمریکای جنوبی",
    "lat": -10.0,
    "long": -76.0
  },
  {
    "id": 608,
    "iso2": "ph",
    "iso3": "phl",
    "name": "فیلیپین",
    "flag": "https://www.world-api.ir/v1/countries/flag/PH.svg",
    "capital": "مانیل",
    "calling_code": 63,
    "continent": "آسیا",
    "lat": 13.0,
    "long": 122.0
  },
  {
    "id": 616,
    "iso2": "pl",
    "iso3": "pol",
    "name": "لهستان",
    "flag": "https://www.world-api.ir/v1/countries/flag/PL.svg",
    "capital": "ورشو",
    "calling_code": 48,
    "continent": "اروپا",
    "lat": 52.0,
    "long": 20.0
  },
  {
    "id": 620,
    "iso2": "pt",
    "iso3": "prt",
    "name": "پرتغال",
    "flag": "https://www.world-api.ir/v1/countries/flag/PT.svg",
    "capital": "لیسبون",
    "calling_code": 351,
    "continent": "اروپا",
    "lat": 39.5,
    "long": -8.0
  },
  {
    "id": 634,
    "iso2": "qa",
    "iso3": "qat",
    "name": "قطر",
    "flag": "https://www.world-api.ir/v1/countries/flag/QA.svg",
    "capital": "دوحه",
    "calling_code": 974,
    "continent": "آسیا",
    "lat": 25.5,
    "long": 51.25
  },
  {
    "id": 642,
    "iso2": "ro",
    "iso3": "rou",
    "name": "رومانی",
    "flag": "https://www.world-api.ir/v1/countries/flag/RO.svg",
    "capital": "بخارست",
    "calling_code": 40,
    "continent": "اروپا",
    "lat": 46.0,
    "long": 25.0
  },
  {
    "id": 643,
    "iso2": "ru",
    "iso3": "rus",
    "name": "روسیه",
    "flag": "https://www.world-api.ir/v1/countries/flag/RU.svg",
    "capital": "مسکو",
    "calling_code": 7,
    "continent": "آسیا",
    "lat": 60.0,
    "long": 100.0
  },
  {
    "id": 646,
    "iso2": "rw",
    "iso3": "rwa",
    "name": "رواندا",
    "flag": "https://www.world-api.ir/v1/countries/flag/RW.svg",
    "capital": "کیگالی",
    "calling_code": 250,
    "continent": "آفریقا",
    "lat": -2.0,
    "long": 30.0
  },
  {
    "id": 659,
    "iso2": "kn",
    "iso3": "kna",
    "name": "سنت کیتس و نویس",
    "flag": "https://www.world-api.ir/v1/countries/flag/KN.svg",
    "capital": "باسه‌تر",
    "calling_code": 1,
    "continent": "آمریکای شمالی",
    "lat": 17.3333,
    "long": -62.75
  },
  {
    "id": 662,
    "iso2": "lc",
    "iso3": "lca",
    "name": "سنت لوسیا",
    "flag": "https://www.world-api.ir/v1/countries/flag/LC.svg",
    "capital": "کاستریس",
    "calling_code": 1,
    "continent": "آمریکای شمالی",
    "lat": 13.8833,
    "long": -61.1333
  },
  {
    "id": 670,
    "iso2": "vc",
    "iso3": "vct",
    "name": "سنت وینسنت و گرنادین‌ها",
    "flag": "https://www.world-api.ir/v1/countries/flag/VC.svg",
    "capital": "کینگزتاون",
    "calling_code": 1,
    "continent": "آمریکای شمالی",
    "lat": 13.25,
    "long": -61.2
  },
  {
    "id": 882,
    "iso2": "ws",
    "iso3": "wsm",
    "name": "ساموآ",
    "flag": "https://www.world-api.ir/v1/countries/flag/WS.svg",
    "capital": "آپیا",
    "calling_code": 685,
    "continent": "استرالیا",
    "lat": -13.5833,
    "long": -172.3333
  },
  {
    "id": 674,
    "iso2": "sm",
    "iso3": "smr",
    "name": "سان مارینو",
    "flag": "https://www.world-api.ir/v1/countries/flag/SM.svg",
    "capital": "سان مارینو",
    "calling_code": 378,
    "continent": "اروپا",
    "lat": 43.7667,
    "long": 12.4167
  },
  {
    "id": 678,
    "iso2": "st",
    "iso3": "stp",
    "name": "سائوتومه و پرنسیپ",
    "flag": "https://www.world-api.ir/v1/countries/flag/ST.svg",
    "capital": "سائوتومه",
    "calling_code": 239,
    "continent": "آفریقا",
    "lat": 1.0,
    "long": 7.0
  },
  {
    "id": 682,
    "iso2": "sa",
    "iso3": "sau",
    "name": "عربستان سعودی",
    "flag": "https://www.world-api.ir/v1/countries/flag/SA.svg",
    "capital": "ریاض",
    "calling_code": 966,
    "continent": "آسیا",
    "lat": 25.0,
    "long": 45.0
  },
  {
    "id": 686,
    "iso2": "sn",
    "iso3": "sen",
    "name": "سنگال",
    "flag": "https://www.world-api.ir/v1/countries/flag/SN.svg",
    "capital": "داکار",
    "calling_code": 221,
    "continent": "آفریقا",
    "lat": 14.0,
    "long": -14.0
  },
  {
    "id": 688,
    "iso2": "rs",
    "iso3": "srb",
    "name": "صربستان",
    "flag": "https://www.world-api.ir/v1/countries/flag/RS.svg",
    "capital": "بلگراد",
    "calling_code": 381,
    "continent": "اروپا",
    "lat": 44.0,
    "long": 21.0
  },
  {
    "id": 690,
    "iso2": "sc",
    "iso3": "syc",
    "name": "سیشل",
    "flag": "https://www.world-api.ir/v1/countries/flag/SC.svg",
    "capital": "ویکتوریا",
    "calling_code": 248,
    "continent": "آفریقا",
    "lat": -4.5833,
    "long": 55.6667
  },
  {
    "id": 694,
    "iso2": "sl",
    "iso3": "sle",
    "name": "سیرالئون",
    "flag": "https://www.world-api.ir/v1/countries/flag/SL.svg",
    "capital": "فری‌تاون",
    "calling_code": 232,
    "continent": "آفریقا",
    "lat": 8.5,
    "long": -11.5
  },
  {
    "id": 702,
    "iso2": "sg",
    "iso3": "sgp",
    "name": "سنگاپور",
    "flag": "https://www.world-api.ir/v1/countries/flag/SG.svg",
    "capital": "سنگاپور",
    "calling_code": 65,
    "continent": "آسیا",
    "lat": 1.3667,
    "long": 103.8
  },
  {
    "id": 703,
    "iso2": "sk",
    "iso3": "svk",
    "name": "اسلواکی",
    "flag": "https://www.world-api.ir/v1/countries/flag/SK.svg",
    "capital": "براتیسلاوا",
    "calling_code": 421,
    "continent": "اروپا",
    "lat": 48.6667,
    "long": 19.5
  },
  {
    "id": 705,
    "iso2": "si",
    "iso3": "svn",
    "name": "اسلوونی",
    "flag": "https://www.world-api.ir/v1/countries/flag/SI.svg",
    "capital": "لیوبلیانا",
    "calling_code": 386,
    "continent": "اروپا",
    "lat": 46.0,
    "long": 15.0
  },
  {
    "id": 90,
    "iso2": "sb",
    "iso3": "slb",
    "name": "جزایر سلیمان",
    "flag": "https://www.world-api.ir/v1/countries/flag/SB.svg",
    "capital": "هونیارا",
    "calling_code": 677,
    "continent": "استرالیا",
    "lat": -8.0,
    "long": 159.0
  },
  {
    "id": 706,
    "iso2": "so",
    "iso3": "som",
    "name": "سومالی",
    "flag": "https://www.world-api.ir/v1/countries/flag/SO.svg",
    "capital": "موگادیشو",
    "calling_code": 252,
    "continent": "آفریقا",
    "lat": 10.0,
    "long": 49.0
  },
  {
    "id": 710,
    "iso2": "za",
    "iso3": "zaf",
    "name": "آفریقای جنوبی",
    "flag": "https://www.world-api.ir/v1/countries/flag/ZA.svg",
    "capital": "پرتوریا",
    "calling_code": 27,
    "continent": "آفریقا",
    "lat": -29.0,
    "long": 24.0
  },
  {
    "id": 724,
    "iso2": "es",
    "iso3": "esp",
    "name": "اسپانیا",
    "flag": "https://www.world-api.ir/v1/countries/flag/ES.svg",
    "capital": "مادرید",
    "calling_code": 34,
    "continent": "اروپا",
    "lat": 40.0,
    "long": -4.0
  },
  {
    "id": 144,
    "iso2": "lk",
    "iso3": "lka",
    "name": "سری‌لانکا",
    "flag": "https://www.world-api.ir/v1/countries/flag/LK.svg",
    "capital": "سری جایاواردنپورا کوته",
    "calling_code": 94,
    "continent": "آسیا",
    "lat": 7.0,
    "long": 81.0
  },
  {
    "id": 729,
    "iso2": "sd",
    "iso3": "sdn",
    "name": "سودان",
    "flag": "https://www.world-api.ir/v1/countries/flag/SD.svg",
    "capital": "خارطوم",
    "calling_code": 249,
    "continent": "آفریقا",
    "lat": 15.0,
    "long": 30.0
  },
  {
    "id": 740,
    "iso2": "sr",
    "iso3": "sur",
    "name": "سورینام",
    "flag": "https://www.world-api.ir/v1/countries/flag/SR.svg",
    "capital": "پراماریبو",
    "calling_code": 597,
    "continent": "آمریکای جنوبی",
    "lat": 4.0,
    "long": -56.0
  },
  {
    "id": 748,
    "iso2": "sz",
    "iso3": "swz",
    "name": "اسواتینی",
    "flag": "https://www.world-api.ir/v1/countries/flag/SZ.svg",
    "capital": "لوبامبا",
    "calling_code": 268,
    "continent": "آفریقا",
    "lat": -26.5,
    "long": 31.5
  },
  {
    "id": 752,
    "iso2": "se",
    "iso3": "swe",
    "name": "سوئد",
    "flag": "https://www.world-api.ir/v1/countries/flag/SE.svg",
    "capital": "استکهلم",
    "calling_code": 46,
    "continent": "اروپا",
    "lat": 62.0,
    "long": 15.0
  },
  {
    "id": 756,
    "iso2": "ch",
    "iso3": "che",
    "name": "سوئیس",
    "flag": "https://www.world-api.ir/v1/countries/flag/CH.svg",
    "capital": "برن",
    "calling_code": 41,
    "continent": "اروپا",
    "lat": 47.0,
    "long": 8.0
  },
  {
    "id": 760,
    "iso2": "sy",
    "iso3": "syr",
    "name": "سوریه",
    "flag": "https://www.world-api.ir/v1/countries/flag/SY.svg",
    "capital": "دمشق",
    "calling_code": 963,
    "continent": "آسیا",
    "lat": 35.0,
    "long": 38.0
  },
  {
    "id": 762,
    "iso2": "tj",
    "iso3": "tjk",
    "name": "تاجیکستان",
    "flag": "https://www.world-api.ir/v1/countries/flag/TJ.svg",
    "capital": "دوشنبه",
    "calling_code": 992,
    "continent": "آسیا",
    "lat": 39.0,
    "long": 71.0
  },
  {
    "id": 834,
    "iso2": "tz",
    "iso3": "tza",
    "name": "تانزانیا",
    "flag": "https://www.world-api.ir/v1/countries/flag/TZ.svg",
    "capital": "دودوما",
    "calling_code": 255,
    "continent": "آفریقا",
    "lat": -6.0,
    "long": 35.0
  },
  {
    "id": 764,
    "iso2": "th",
    "iso3": "tha",
    "name": "تایلند",
    "flag": "https://www.world-api.ir/v1/countries/flag/TH.svg",
    "capital": "بانکوک",
    "calling_code": 66,
    "continent": "آسیا",
    "lat": 15.0,
    "long": 100.0
  },
  {
    "id": 626,
    "iso2": "tl",
    "iso3": "tls",
    "name": "تیمور شرقی",
    "flag": "https://www.world-api.ir/v1/countries/flag/TL.svg",
    "capital": "دیلی",
    "calling_code": 670,
    "continent": "آسیا",
    "lat": -8.55,
    "long": 125.5167
  },
  {
    "id": 768,
    "iso2": "tg",
    "iso3": "tgo",
    "name": "توگو",
    "flag": "https://www.world-api.ir/v1/countries/flag/TG.svg",
    "capital": "لومه",
    "calling_code": 228,
    "continent": "آفریقا",
    "lat": 8.0,
    "long": 1.1667
  },
  {
    "id": 776,
    "iso2": "to",
    "iso3": "ton",
    "name": "تونگا",
    "flag": "https://www.world-api.ir/v1/countries/flag/TO.svg",
    "capital": "نوکوآلوفا",
    "calling_code": 676,
    "continent": "استرالیا",
    "lat": -20.0,
    "long": -175.0
  },
  {
    "id": 780,
    "iso2": "tt",
    "iso3": "tto",
    "name": "ترینیداد و توباگو",
    "flag": "https://www.world-api.ir/v1/countries/flag/TT.svg",
    "capital": "بندر اسپانیا",
    "calling_code": 1,
    "continent": "آمریکای شمالی",
    "lat": 11.0,
    "long": -61.0
  },
  {
    "id": 788,
    "iso2": "tn",
    "iso3": "tun",
    "name": "تونس",
    "flag": "https://www.world-api.ir/v1/countries/flag/TN.svg",
    "capital": "تونس",
    "calling_code": 216,
    "continent": "آفریقا",
    "lat": 34.0,
    "long": 9.0
  },
  {
    "id": 792,
    "iso2": "tr",
    "iso3": "tur",
    "name": "ترکیه",
    "flag": "https://www.world-api.ir/v1/countries/flag/TR.svg",
    "capital": "آنکارا",
    "calling_code": 90,
    "continent": "آسیا",
    "lat": 39.0,
    "long": 35.0
  },
  {
    "id": 795,
    "iso2": "tm",
    "iso3": "tkm",
    "name": "ترکمنستان",
    "flag": "https://www.world-api.ir/v1/countries/flag/TM.svg",
    "capital": "عشق‌آباد",
    "calling_code": 993,
    "continent": "آسیا",
    "lat": 40.0,
    "long": 60.0
  },
  {
    "id": 798,
    "iso2": "tv",
    "iso3": "tuv",
    "name": "تووالو",
    "flag": "https://www.world-api.ir/v1/countries/flag/TV.svg",
    "capital": "فونافوتی",
    "calling_code": 688,
    "continent": "استرالیا",
    "lat": -8.0,
    "long": 178.0
  },
  {
    "id": 800,
    "iso2": "ug",
    "iso3": "uga",
    "name": "اوگاندا",
    "flag": "https://www.world-api.ir/v1/countries/flag/UG.svg",
    "capital": "کامپالا",
    "calling_code": 256,
    "continent": "آفریقا",
    "lat": 1.0,
    "long": 32.0
  },
  {
    "id": 804,
    "iso2": "ua",
    "iso3": "ukr",
    "name": "اوکراین",
    "flag": "https://www.world-api.ir/v1/countries/flag/UA.svg",
    "capital": "کی‌یف",
    "calling_code": 380,
    "continent": "اروپا",
    "lat": 49.0,
    "long": 32.0
  },
  {
    "id": 784,
    "iso2": "ae",
    "iso3": "are",
    "name": "امارات متحده عربی",
    "flag": "https://www.world-api.ir/v1/countries/flag/AE.svg",
    "capital": "ابوظبی",
    "calling_code": 971,
    "continent": "آسیا",
    "lat": 24.0,
    "long": 54.0
  },
  {
    "id": 826,
    "iso2": "gb",
    "iso3": "gbr",
    "name": "بریتانیا",
    "flag": "https://www.world-api.ir/v1/countries/flag/GB.svg",
    "capital": "لندن",
    "calling_code": 44,
    "continent": "اروپا",
    "lat": 54.0,
    "long": -2.0
  },
  {
    "id": 840,
    "iso2": "us",
    "iso3": "usa",
    "name": "ایالات متحده آمریکا",
    "flag": "https://www.world-api.ir/v1/countries/flag/US.svg",
    "capital": "واشنگتن دی‌سی",
    "calling_code": 1,
    "continent": "آمریکای شمالی",
    "lat": 38.0,
    "long": -97.0
  },
  {
    "id": 858,
    "iso2": "uy",
    "iso3": "ury",
    "name": "اروگوئه",
    "flag": "https://www.world-api.ir/v1/countries/flag/UY.svg",
    "capital": "مونته‌ویدئو",
    "calling_code": 598,
    "continent": "آمریکای جنوبی",
    "lat": -33.0,
    "long": -56.0
  },
  {
    "id": 860,
    "iso2": "uz",
    "iso3": "uzb",
    "name": "ازبکستان",
    "flag": "https://www.world-api.ir/v1/countries/flag/UZ.svg",
    "capital": "تاشکند",
    "calling_code": 998,
    "continent": "آسیا",
    "lat": 41.0,
    "long": 64.0
  },
  {
    "id": 548,
    "iso2": "vu",
    "iso3": "vut",
    "name": "وانواتو",
    "flag": "https://www.world-api.ir/v1/countries/flag/VU.svg",
    "capital": "پورت ویلا",
    "calling_code": 678,
    "continent": "استرالیا",
    "lat": -16.0,
    "long": 167.0
  },
  {
    "id": 862,
    "iso2": "ve",
    "iso3": "ven",
    "name": "ونزوئلا",
    "flag": "https://www.world-api.ir/v1/countries/flag/VE.svg",
    "capital": "کاراکاس",
    "calling_code": 58,
    "continent": "آمریکای جنوبی",
    "lat": 8.0,
    "long": -66.0
  },
  {
    "id": 704,
    "iso2": "vn",
    "iso3": "vnm",
    "name": "ویتنام",
    "flag": "https://www.world-api.ir/v1/countries/flag/VN.svg",
    "capital": "هانوی",
    "calling_code": 84,
    "continent": "آسیا",
    "lat": 16.0,
    "long": 106.0
  },
  {
    "id": 887,
    "iso2": "ye",
    "iso3": "yem",
    "name": "یمن",
    "flag": "https://www.world-api.ir/v1/countries/flag/YE.svg",
    "capital": "صنعا",
    "calling_code": 967,
    "continent": "آسیا",
    "lat": 15.0,
    "long": 48.0
  },
  {
    "id": 894,
    "iso2": "zm",
    "iso3": "zmb",
    "name": "زامبیا",
    "flag": "https://www.world-api.ir/v1/countries/flag/ZM.svg",
    "capital": "لوساکا",
    "calling_code": 260,
    "continent": "آفریقا",
    "lat": -15.0,
    "long": 30.0
  },
  {
    "id": 716,
    "iso2": "zw",
    "iso3": "zwe",
    "name": "زیمبابوه",
    "flag": "https://www.world-api.ir/v1/countries/flag/ZW.svg",
    "capital": "هراره",
    "calling_code": 263,
    "continent": "آفریقا",
    "lat": -20.0,
    "long": 30.0
  },
  {
    "id": 728,
    "iso2": "ss",
    "iso3": "ssd",
    "name": "سودان جنوبی",
    "flag": "https://www.world-api.ir/v1/countries/flag/SS.svg",
    "capital": "جوبا",
    "calling_code": 211,
    "continent": "آفریقا",
    "lat": 8.0,
    "long": 30.0
  }
]
