[
    {
        "id": 4,
        "iso2": "af",
        "iso3": "afg",
        "name": "أفغانستان",
        "flag": "http://localhost:3000/v1/countries/flag/AF.svg",
        "capital": "كابول",
        "calling_code": 93,
        "continent": "آسیا",
        "lat": 33.0,
        "long": 65.0
    },
    {
        "id": 8,
        "iso2": "al",
        "iso3": "alb",
        "name": "ألبانيا",
        "flag": "http://localhost:3000/v1/countries/flag/AL.svg",
        "capital": "تيرانا",
        "calling_code": 355,
        "continent": "أوروبا",
        "lat": 41.0,
        "long": 20.0
    },
    {
        "id": 12,
        "iso2": "dz",
        "iso3": "dza",
        "name": "الجزائر",
        "flag": "http://localhost:3000/v1/countries/flag/DZ.svg",
        "capital": "الجزائر",
        "calling_code": 213,
        "continent": "أفريقيا",
        "lat": 28.0,
        "long": 3.0
    },
    {
        "id": 20,
        "iso2": "ad",
        "iso3": "and",
        "name": "أندورا",
        "flag": "http://localhost:3000/v1/countries/flag/AD.svg",
        "capital": "أندورا لا فيلا",
        "calling_code": 376,
        "continent": "أوروبا",
        "lat": 42.5,
        "long": 1.6
    },
    {
        "id": 24,
        "iso2": "ao",
        "iso3": "ago",
        "name": "أنغولا",
        "flag": "http://localhost:3000/v1/countries/flag/AO.svg",
        "capital": "لواندا",
        "calling_code": 244,
        "continent": "أفريقيا",
        "lat": -12.5,
        "long": 18.5
    },
    {
        "id": 28,
        "iso2": "ag",
        "iso3": "atg",
        "name": "أنتيغوا وباربودا",
        "flag": "http://localhost:3000/v1/countries/flag/AG.svg",
        "capital": "سانت جونز",
        "calling_code": 1,
        "continent": "أمريكا الشمالية",
        "lat": 17.05,
        "long": -61.8
    },
    {
        "id": 32,
        "iso2": "ar",
        "iso3": "arg",
        "name": "الأرجنتين",
        "flag": "http://localhost:3000/v1/countries/flag/AR.svg",
        "capital": "بوينس آيرس",
        "calling_code": 54,
        "continent": "أمريكا الجنوبية",
        "lat": -34.0,
        "long": -64.0
    },
    {
        "id": 51,
        "iso2": "am",
        "iso3": "arm",
        "name": "أرمينيا",
        "flag": "http://localhost:3000/v1/countries/flag/AM.svg",
        "capital": "يريفان",
        "calling_code": 374,
        "continent": "آسیا",
        "lat": 40.0,
        "long": 45.0
    },
    {
        "id": 36,
        "iso2": "au",
        "iso3": "aus",
        "name": "أستراليا",
        "flag": "http://localhost:3000/v1/countries/flag/AU.svg",
        "capital": "كانبرا",
        "calling_code": 61,
        "continent": "أستراليا",
        "lat": -27.0,
        "long": 133.0
    },
    {
        "id": 40,
        "iso2": "at",
        "iso3": "aut",
        "name": "النمسا",
        "flag": "http://localhost:3000/v1/countries/flag/AT.svg",
        "capital": "فيينا",
        "calling_code": 43,
        "continent": "أوروبا",
        "lat": 47.3333,
        "long": 13.3333
    },
    {
        "id": 31,
        "iso2": "az",
        "iso3": "aze",
        "name": "أذربيجان",
        "flag": "http://localhost:3000/v1/countries/flag/AZ.svg",
        "capital": "باكو",
        "calling_code": 994,
        "continent": "آسیا",
        "lat": 40.5,
        "long": 47.5
    },
    {
        "id": 44,
        "iso2": "bs",
        "iso3": "bhs",
        "name": "جزر البهاما",
        "flag": "http://localhost:3000/v1/countries/flag/BS.svg",
        "capital": "ناسو",
        "calling_code": 1,
        "continent": "أمريكا الشمالية",
        "lat": 24.25,
        "long": -76.0
    },
    {
        "id": 48,
        "iso2": "bh",
        "iso3": "bhr",
        "name": "البحرين",
        "flag": "http://localhost:3000/v1/countries/flag/BH.svg",
        "capital": "المنامة",
        "calling_code": 973,
        "continent": "آسیا",
        "lat": 26.0,
        "long": 50.55
    },
    {
        "id": 50,
        "iso2": "bd",
        "iso3": "bgd",
        "name": "بنغلاديش",
        "flag": "http://localhost:3000/v1/countries/flag/BD.svg",
        "capital": "دكا",
        "calling_code": 880,
        "continent": "آسیا",
        "lat": 24.0,
        "long": 90.0
    },
    {
        "id": 52,
        "iso2": "bb",
        "iso3": "brb",
        "name": "باربادوس",
        "flag": "http://localhost:3000/v1/countries/flag/BB.svg",
        "capital": "بريدجتاون",
        "calling_code": 1,
        "continent": "أمريكا الشمالية",
        "lat": 13.1667,
        "long": -59.5333
    },
    {
        "id": 112,
        "iso2": "by",
        "iso3": "blr",
        "name": "بيلاروس",
        "flag": "http://localhost:3000/v1/countries/flag/BY.svg",
        "capital": "مينسك",
        "calling_code": 375,
        "continent": "أوروبا",
        "lat": 53.0,
        "long": 28.0
    },
    {
        "id": 56,
        "iso2": "be",
        "iso3": "bel",
        "name": "بلجيكا",
        "flag": "http://localhost:3000/v1/countries/flag/BE.svg",
        "capital": "بروكسل",
        "calling_code": 32,
        "continent": "أوروبا",
        "lat": 50.8333,
        "long": 4.0
    },
    {
        "id": 84,
        "iso2": "bz",
        "iso3": "blz",
        "name": "بليز",
        "flag": "http://localhost:3000/v1/countries/flag/BZ.svg",
        "capital": "بلموبان",
        "calling_code": 501,
        "continent": "أمريكا الشمالية",
        "lat": 17.25,
        "long": -88.75
    },
    {
        "id": 204,
        "iso2": "bj",
        "iso3": "ben",
        "name": "بنين",
        "flag": "http://localhost:3000/v1/countries/flag/BJ.svg",
        "capital": "بورتو نوفو",
        "calling_code": 229,
        "continent": "أفريقيا",
        "lat": 9.5,
        "long": 2.25
    },
    {
        "id": 64,
        "iso2": "bt",
        "iso3": "btn",
        "name": "بوتان",
        "flag": "http://localhost:3000/v1/countries/flag/BT.svg",
        "capital": "تيمفو",
        "calling_code": 975,
        "continent": "آسیا",
        "lat": 27.5,
        "long": 90.5
    },
    {
        "id": 68,
        "iso2": "bo",
        "iso3": "bol",
        "name": "بوليفيا",
        "flag": "http://localhost:3000/v1/countries/flag/BO.svg",
        "capital": "لاباز",
        "calling_code": 591,
        "continent": "أمريكا الجنوبية",
        "lat": -17.0,
        "long": -65.0
    },
    {
        "id": 70,
        "iso2": "ba",
        "iso3": "bih",
        "name": "البوسنة والهرسك",
        "flag": "http://localhost:3000/v1/countries/flag/BA.svg",
        "capital": "ساراييفو",
        "calling_code": 387,
        "continent": "أوروبا",
        "lat": 44.0,
        "long": 18.0
    },
    {
        "id": 72,
        "iso2": "bw",
        "iso3": "bwa",
        "name": "بوتسوانا",
        "flag": "http://localhost:3000/v1/countries/flag/BW.svg",
        "capital": "جابورون",
        "calling_code": 267,
        "continent": "أفريقيا",
        "lat": -22.0,
        "long": 24.0
    },
    {
        "id": 76,
        "iso2": "br",
        "iso3": "bra",
        "name": "البرازيل",
        "flag": "http://localhost:3000/v1/countries/flag/BR.svg",
        "capital": "برازيليا",
        "calling_code": 55,
        "continent": "أمريكا الجنوبية",
        "lat": -10.0,
        "long": -55.0
    },
    {
        "id": 96,
        "iso2": "bn",
        "iso3": "brn",
        "name": "بروناي",
        "flag": "http://localhost:3000/v1/countries/flag/BN.svg",
        "capital": "بندر سري بكاوان",
        "calling_code": 673,
        "continent": "آسیا",
        "lat": 4.5,
        "long": 114.6667
    },
    {
        "id": 100,
        "iso2": "bg",
        "iso3": "bgr",
        "name": "بلغاريا",
        "flag": "http://localhost:3000/v1/countries/flag/BG.svg",
        "capital": "صوفيا",
        "calling_code": 359,
        "continent": "أوروبا",
        "lat": 43.0,
        "long": 25.0
    },
    {
        "id": 854,
        "iso2": "bf",
        "iso3": "bfa",
        "name": "بوركينا فاسو",
        "flag": "http://localhost:3000/v1/countries/flag/BF.svg",
        "capital": "واغادوغو",
        "calling_code": 226,
        "continent": "أفريقيا",
        "lat": 13.0,
        "long": -2.0
    },
    {
        "id": 108,
        "iso2": "bi",
        "iso3": "bdi",
        "name": "بوروندي",
        "flag": "http://localhost:3000/v1/countries/flag/BI.svg",
        "capital": "بوجمبورا",
        "calling_code": 257,
        "continent": "أفريقيا",
        "lat": -3.5,
        "long": 30.0
    },
    {
        "id": 116,
        "iso2": "kh",
        "iso3": "khm",
        "name": "كمبوديا",
        "flag": "http://localhost:3000/v1/countries/flag/KH.svg",
        "capital": "بنوم بنه",
        "calling_code": 855,
        "continent": "آسیا",
        "lat": 13.0,
        "long": 105.0
    },
    {
        "id": 120,
        "iso2": "cm",
        "iso3": "cmr",
        "name": "الكاميرون",
        "flag": "http://localhost:3000/v1/countries/flag/CM.svg",
        "capital": "ياوندي",
        "calling_code": 237,
        "continent": "أفريقيا",
        "lat": 6.0,
        "long": 12.0
    },
    {
        "id": 124,
        "iso2": "ca",
        "iso3": "can",
        "name": "كندا",
        "flag": "http://localhost:3000/v1/countries/flag/CA.svg",
        "capital": "أوتاوا",
        "calling_code": 1,
        "continent": "أمريكا الشمالية",
        "lat": 60.0,
        "long": -95.0
    },
    {
        "id": 132,
        "iso2": "cv",
        "iso3": "cpv",
        "name": "الرأس الأخضر",
        "flag": "http://localhost:3000/v1/countries/flag/CV.svg",
        "capital": "برايا",
        "calling_code": 238,
        "continent": "أفريقيا",
        "lat": 16.0,
        "long": -24.0
    },
    {
        "id": 140,
        "iso2": "cf",
        "iso3": "caf",
        "name": "جمهورية إفريقيا الوسطى",
        "flag": "http://localhost:3000/v1/countries/flag/CF.svg",
        "capital": "بانغي",
        "calling_code": 236,
        "continent": "أفريقيا",
        "lat": 7.0,
        "long": 21.0
    },
    {
        "id": 148,
        "iso2": "td",
        "iso3": "tcd",
        "name": "تشاد",
        "flag": "http://localhost:3000/v1/countries/flag/TD.svg",
        "capital": "انجمينا",
        "calling_code": 235,
        "continent": "أفريقيا",
        "lat": 15.0,
        "long": 19.0
    },
    {
        "id": 152,
        "iso2": "cl",
        "iso3": "chl",
        "name": "تشيلي",
        "flag": "http://localhost:3000/v1/countries/flag/CL.svg",
        "capital": "سانتياغو",
        "calling_code": 56,
        "continent": "أمريكا الجنوبية",
        "lat": -30.0,
        "long": -71.0
    },
    {
        "id": 156,
        "iso2": "cn",
        "iso3": "chn",
        "name": "الصين",
        "flag": "http://localhost:3000/v1/countries/flag/CN.svg",
        "capital": "بكين",
        "calling_code": 86,
        "continent": "آسیا",
        "lat": 35.0,
        "long": 105.0
    },
    {
        "id": 170,
        "iso2": "co",
        "iso3": "col",
        "name": "كولومبيا",
        "flag": "http://localhost:3000/v1/countries/flag/CO.svg",
        "capital": "بوغوتا",
        "calling_code": 57,
        "continent": "أمريكا الجنوبية",
        "lat": 4.0,
        "long": -72.0
    },
    {
        "id": 174,
        "iso2": "km",
        "iso3": "com",
        "name": "جزر القمر",
        "flag": "http://localhost:3000/v1/countries/flag/KM.svg",
        "capital": "موروني",
        "calling_code": 269,
        "continent": "أفريقيا",
        "lat": -12.1667,
        "long": 44.25
    },
    {
        "id": 178,
        "iso2": "cg",
        "iso3": "cog",
        "name": "جمهورية الكونغو",
        "flag": "http://localhost:3000/v1/countries/flag/CG.svg",
        "capital": "برازافيل",
        "calling_code": 242,
        "continent": "أفريقيا",
        "lat": -1.0,
        "long": 15.0
    },
    {
        "id": 180,
        "iso2": "cd",
        "iso3": "cod",
        "name": "جمهورية الكونغو الديمقراطية",
        "flag": "http://localhost:3000/v1/countries/flag/CD.svg",
        "capital": "كينشاسا",
        "calling_code": 243,
        "continent": "أفريقيا",
        "lat": 0.0,
        "long": 25.0
    },
    {
        "id": 188,
        "iso2": "cr",
        "iso3": "cri",
        "name": "كوستاريكا",
        "flag": "http://localhost:3000/v1/countries/flag/CR.svg",
        "capital": "سان خوسيه",
        "calling_code": 506,
        "continent": "أمريكا الشمالية",
        "lat": 10.0,
        "long": -84.0
    },
    {
        "id": 384,
        "iso2": "ci",
        "iso3": "civ",
        "name": "ساحل العاج",
        "flag": "http://localhost:3000/v1/countries/flag/CI.svg",
        "capital": "ياموسوكرو",
        "calling_code": 225,
        "continent": "أفريقيا",
        "lat": 8.0,
        "long": -5.0
    },
    {
        "id": 191,
        "iso2": "hr",
        "iso3": "hrv",
        "name": "كرواتيا",
        "flag": "http://localhost:3000/v1/countries/flag/HR.svg",
        "capital": "زغرب",
        "calling_code": 385,
        "continent": "أوروبا",
        "lat": 45.1667,
        "long": 15.5
    },
    {
        "id": 192,
        "iso2": "cu",
        "iso3": "cub",
        "name": "كوبا",
        "flag": "http://localhost:3000/v1/countries/flag/CU.svg",
        "capital": "هافانا",
        "calling_code": 53,
        "continent": "أمريكا الشمالية",
        "lat": 21.5,
        "long": -80.0
    },
    {
        "id": 196,
        "iso2": "cy",
        "iso3": "cyp",
        "name": "قبرص",
        "flag": "http://localhost:3000/v1/countries/flag/CY.svg",
        "capital": "نيقوسيا",
        "calling_code": 357,
        "continent": "آسیا",
        "lat": 35.0,
        "long": 33.0
    },
    {
        "id": 203,
        "iso2": "cz",
        "iso3": "cze",
        "name": "جمهورية التشيك",
        "flag": "http://localhost:3000/v1/countries/flag/CZ.svg",
        "capital": "براغ",
        "calling_code": 420,
        "continent": "أوروبا",
        "lat": 49.75,
        "long": 15.5
    },
    {
        "id": 208,
        "iso2": "dk",
        "iso3": "dnk",
        "name": "الدنمارك",
        "flag": "http://localhost:3000/v1/countries/flag/DK.svg",
        "capital": "كوبنهاغن",
        "calling_code": 45,
        "continent": "أوروبا",
        "lat": 56.0,
        "long": 10.0
    },
    {
        "id": 262,
        "iso2": "dj",
        "iso3": "dji",
        "name": "جيبوتي",
        "flag": "http://localhost:3000/v1/countries/flag/DJ.svg",
        "capital": "جيبوتي",
        "calling_code": 253,
        "continent": "أفريقيا",
        "lat": 11.5,
        "long": 43.0
    },
    {
        "id": 212,
        "iso2": "dm",
        "iso3": "dma",
        "name": "دومينيكا",
        "flag": "http://localhost:3000/v1/countries/flag/DM.svg",
        "capital": "روسو",
        "calling_code": 1,
        "continent": "أمريكا الشمالية",
        "lat": 15.4167,
        "long": -61.3333
    },
    {
        "id": 214,
        "iso2": "do",
        "iso3": "dom",
        "name": "جمهورية الدومينيكان",
        "flag": "http://localhost:3000/v1/countries/flag/DO.svg",
        "capital": "سانتو دومينغو",
        "calling_code": 1,
        "continent": "أمريكا الشمالية",
        "lat": 19.0,
        "long": -70.6667
    },
    {
        "id": 218,
        "iso2": "ec",
        "iso3": "ecu",
        "name": "الإكوادور",
        "flag": "http://localhost:3000/v1/countries/flag/EC.svg",
        "capital": "كيتو",
        "calling_code": 593,
        "continent": "أمريكا الجنوبية",
        "lat": -2.0,
        "long": -77.5
    },
    {
        "id": 818,
        "iso2": "eg",
        "iso3": "egy",
        "name": "مصر",
        "flag": "http://localhost:3000/v1/countries/flag/EG.svg",
        "capital": "القاهرة",
        "calling_code": 20,
        "continent": "أفريقيا",
        "lat": 27.0,
        "long": 30.0
    },
    {
        "id": 222,
        "iso2": "sv",
        "iso3": "slv",
        "name": "السلفادور",
        "flag": "http://localhost:3000/v1/countries/flag/SV.svg",
        "capital": "سان سلفادور",
        "calling_code": 503,
        "continent": "أمريكا الشمالية",
        "lat": 13.8333,
        "long": -88.9167
    },
    {
        "id": 226,
        "iso2": "gq",
        "iso3": "gnq",
        "name": "غينيا الاستوائية",
        "flag": "http://localhost:3000/v1/countries/flag/GQ.svg",
        "capital": "مالابو",
        "calling_code": 240,
        "continent": "أفريقيا",
        "lat": 2.0,
        "long": 10.0
    },
    {
        "id": 232,
        "iso2": "er",
        "iso3": "eri",
        "name": "إرتريا",
        "flag": "http://localhost:3000/v1/countries/flag/ER.svg",
        "capital": "أسمرة",
        "calling_code": 291,
        "continent": "أفريقيا",
        "lat": 15.0,
        "long": 39.0
    },
    {
        "id": 233,
        "iso2": "ee",
        "iso3": "est",
        "name": "إستونيا",
        "flag": "http://localhost:3000/v1/countries/flag/EE.svg",
        "capital": "تالين",
        "calling_code": 372,
        "continent": "أوروبا",
        "lat": 59.0,
        "long": 26.0
    },
    {
        "id": 231,
        "iso2": "et",
        "iso3": "eth",
        "name": "إثيوبيا",
        "flag": "http://localhost:3000/v1/countries/flag/ET.svg",
        "capital": "اديس ابابا",
        "calling_code": 251,
        "continent": "أفريقيا",
        "lat": 8.0,
        "long": 38.0
    },
    {
        "id": 242,
        "iso2": "fj",
        "iso3": "fji",
        "name": "فيجي",
        "flag": "http://localhost:3000/v1/countries/flag/FJ.svg",
        "capital": "سوفا",
        "calling_code": 679,
        "continent": "أستراليا",
        "lat": -18.0,
        "long": 175.0
    },
    {
        "id": 246,
        "iso2": "fi",
        "iso3": "fin",
        "name": "فنلندا",
        "flag": "http://localhost:3000/v1/countries/flag/FI.svg",
        "capital": "هلسنكي",
        "calling_code": 358,
        "continent": "أوروبا",
        "lat": 64.0,
        "long": 26.0
    },
    {
        "id": 250,
        "iso2": "fr",
        "iso3": "fra",
        "name": "فرنسا",
        "flag": "http://localhost:3000/v1/countries/flag/FR.svg",
        "capital": "باريس",
        "calling_code": 33,
        "continent": "أوروبا",
        "lat": 46.0,
        "long": 2.0
    },
    {
        "id": 266,
        "iso2": "ga",
        "iso3": "gab",
        "name": "الغابون",
        "flag": "http://localhost:3000/v1/countries/flag/GA.svg",
        "capital": "ليبرفيل",
        "calling_code": 241,
        "continent": "أفريقيا",
        "lat": -1.0,
        "long": 11.75
    },
    {
        "id": 270,
        "iso2": "gm",
        "iso3": "gmb",
        "name": "غامبيا",
        "flag": "http://localhost:3000/v1/countries/flag/GM.svg",
        "capital": "بانجول",
        "calling_code": 220,
        "continent": "أفريقيا",
        "lat": 13.4667,
        "long": -16.5667
    },
    {
        "id": 268,
        "iso2": "ge",
        "iso3": "geo",
        "name": "جورجيا",
        "flag": "http://localhost:3000/v1/countries/flag/GE.svg",
        "capital": "تبليسي",
        "calling_code": 995,
        "continent": "آسیا",
        "lat": 42.0,
        "long": 43.5
    },
    {
        "id": 276,
        "iso2": "de",
        "iso3": "deu",
        "name": "ألمانيا",
        "flag": "http://localhost:3000/v1/countries/flag/DE.svg",
        "capital": "برلين",
        "calling_code": 49,
        "continent": "أوروبا",
        "lat": 51.0,
        "long": 9.0
    },
    {
        "id": 288,
        "iso2": "gh",
        "iso3": "gha",
        "name": "غانا",
        "flag": "http://localhost:3000/v1/countries/flag/GH.svg",
        "capital": "أكرا",
        "calling_code": 233,
        "continent": "أفريقيا",
        "lat": 8.0,
        "long": -2.0
    },
    {
        "id": 300,
        "iso2": "gr",
        "iso3": "grc",
        "name": "اليونان",
        "flag": "http://localhost:3000/v1/countries/flag/GR.svg",
        "capital": "أثينا",
        "calling_code": 30,
        "continent": "أوروبا",
        "lat": 39.0,
        "long": 22.0
    },
    {
        "id": 308,
        "iso2": "gd",
        "iso3": "grd",
        "name": "غرينادا",
        "flag": "http://localhost:3000/v1/countries/flag/GD.svg",
        "capital": "سانت جورجز",
        "calling_code": 1,
        "continent": "أمريكا الشمالية",
        "lat": 12.1167,
        "long": -61.6667
    },
    {
        "id": 320,
        "iso2": "gt",
        "iso3": "gtm",
        "name": "غواتيمالا",
        "flag": "http://localhost:3000/v1/countries/flag/GT.svg",
        "capital": "غواتيمالا",
        "calling_code": 502,
        "continent": "أمريكا الشمالية",
        "lat": 15.5,
        "long": -90.25
    },
    {
        "id": 324,
        "iso2": "gn",
        "iso3": "gin",
        "name": "غينيا",
        "flag": "http://localhost:3000/v1/countries/flag/GN.svg",
        "capital": "كوناكري",
        "calling_code": 224,
        "continent": "أفريقيا",
        "lat": 11.0,
        "long": -10.0
    },
    {
        "id": 624,
        "iso2": "gw",
        "iso3": "gnb",
        "name": "غينيا بيساو",
        "flag": "http://localhost:3000/v1/countries/flag/GW.svg",
        "capital": "بيساو",
        "calling_code": 245,
        "continent": "أفريقيا",
        "lat": 12.0,
        "long": -15.0
    },
    {
        "id": 328,
        "iso2": "gy",
        "iso3": "guy",
        "name": "غيانا",
        "flag": "http://localhost:3000/v1/countries/flag/GY.svg",
        "capital": "جورج تاون",
        "calling_code": 592,
        "continent": "أمريكا الجنوبية",
        "lat": 5.0,
        "long": -59.0
    },
    {
        "id": 332,
        "iso2": "ht",
        "iso3": "hti",
        "name": "هايتي",
        "flag": "http://localhost:3000/v1/countries/flag/HT.svg",
        "capital": "بورت أو برانس",
        "calling_code": 509,
        "continent": "أمريكا الشمالية",
        "lat": 19.0,
        "long": -72.4167
    },
    {
        "id": 340,
        "iso2": "hn",
        "iso3": "hnd",
        "name": "هندوراس",
        "flag": "http://localhost:3000/v1/countries/flag/HN.svg",
        "capital": "تيجوسيجالبا",
        "calling_code": 504,
        "continent": "أمريكا الشمالية",
        "lat": 15.0,
        "long": -86.5
    },
    {
        "id": 348,
        "iso2": "hu",
        "iso3": "hun",
        "name": "المجر",
        "flag": "http://localhost:3000/v1/countries/flag/HU.svg",
        "capital": "بودابست",
        "calling_code": 36,
        "continent": "أوروبا",
        "lat": 47.0,
        "long": 20.0
    },
    {
        "id": 352,
        "iso2": "is",
        "iso3": "isl",
        "name": "آيسلندا",
        "flag": "http://localhost:3000/v1/countries/flag/IS.svg",
        "capital": "ریکیاویک",
        "calling_code": 354,
        "continent": "أوروبا",
        "lat": 65.0,
        "long": -18.0
    },
    {
        "id": 356,
        "iso2": "in",
        "iso3": "ind",
        "name": "الهند",
        "flag": "http://localhost:3000/v1/countries/flag/IN.svg",
        "capital": "نيودلهي",
        "calling_code": 91,
        "continent": "آسیا",
        "lat": 20.0,
        "long": 77.0
    },
    {
        "id": 360,
        "iso2": "id",
        "iso3": "idn",
        "name": "إندونيسيا",
        "flag": "http://localhost:3000/v1/countries/flag/ID.svg",
        "capital": "جاكرتا",
        "calling_code": 62,
        "continent": "آسیا",
        "lat": -5.0,
        "long": 120.0
    },
    {
        "id": 364,
        "iso2": "ir",
        "iso3": "irn",
        "name": "إيران",
        "flag": "http://localhost:3000/v1/countries/flag/IR.svg",
        "capital": "طهران",
        "calling_code": 98,
        "continent": "آسیا",
        "lat": 32.0,
        "long": 53.0
    },
    {
        "id": 368,
        "iso2": "iq",
        "iso3": "irq",
        "name": "العراق",
        "flag": "http://localhost:3000/v1/countries/flag/IQ.svg",
        "capital": "بغداد",
        "calling_code": 964,
        "continent": "آسیا",
        "lat": 33.0,
        "long": 44.0
    },
    {
        "id": 372,
        "iso2": "ie",
        "iso3": "irl",
        "name": "أيرلندا",
        "flag": "http://localhost:3000/v1/countries/flag/IE.svg",
        "capital": "دبلن",
        "calling_code": 353,
        "continent": "أوروبا",
        "lat": 53.0,
        "long": -8.0
    },
    {
        "id": 376,
        "iso2": "il",
        "iso3": "isr",
        "name": "إسرائيل",
        "flag": "http://localhost:3000/v1/countries/flag/IL.svg",
        "capital": "تل أبيب (القدس)",
        "calling_code": 972,
        "continent": "آسیا",
        "lat": 31.5,
        "long": 34.75
    },
    {
        "id": 380,
        "iso2": "it",
        "iso3": "ita",
        "name": "إيطاليا",
        "flag": "http://localhost:3000/v1/countries/flag/IT.svg",
        "capital": "روما",
        "calling_code": 39,
        "continent": "أوروبا",
        "lat": 42.8333,
        "long": 12.8333
    },
    {
        "id": 388,
        "iso2": "jm",
        "iso3": "jam",
        "name": "جامايكا",
        "flag": "http://localhost:3000/v1/countries/flag/JM.svg",
        "capital": "كينغستون",
        "calling_code": 1,
        "continent": "أمريكا الشمالية",
        "lat": 18.25,
        "long": -77.5
    },
    {
        "id": 392,
        "iso2": "jp",
        "iso3": "jpn",
        "name": "اليابان",
        "flag": "http://localhost:3000/v1/countries/flag/JP.svg",
        "capital": "طوكيو",
        "calling_code": 81,
        "continent": "آسیا",
        "lat": 36.0,
        "long": 138.0
    },
    {
        "id": 400,
        "iso2": "jo",
        "iso3": "jor",
        "name": "الأردن",
        "flag": "http://localhost:3000/v1/countries/flag/JO.svg",
        "capital": "عمان",
        "calling_code": 962,
        "continent": "آسیا",
        "lat": 31.0,
        "long": 36.0
    },
    {
        "id": 398,
        "iso2": "kz",
        "iso3": "kaz",
        "name": "كازاخستان",
        "flag": "http://localhost:3000/v1/countries/flag/KZ.svg",
        "capital": "نور سلطان (أستانا)",
        "calling_code": 7,
        "continent": "آسیا",
        "lat": 48.0,
        "long": 68.0
    },
    {
        "id": 404,
        "iso2": "ke",
        "iso3": "ken",
        "name": "كينيا",
        "flag": "http://localhost:3000/v1/countries/flag/KE.svg",
        "capital": "نيروبي",
        "calling_code": 254,
        "continent": "أفريقيا",
        "lat": 1.0,
        "long": 38.0
    },
    {
        "id": 296,
        "iso2": "ki",
        "iso3": "kir",
        "name": "كيريباتي",
        "flag": "http://localhost:3000/v1/countries/flag/KI.svg",
        "capital": "تاراوا",
        "calling_code": 686,
        "continent": "أستراليا",
        "lat": 1.4167,
        "long": 173.0
    },
    {
        "id": 408,
        "iso2": "kp",
        "iso3": "prk",
        "name": "كوريا الشمالية",
        "flag": "http://localhost:3000/v1/countries/flag/KP.svg",
        "capital": "بيونغيانغ",
        "calling_code": 850,
        "continent": "آسیا",
        "lat": 40.0,
        "long": 127.0
    },
    {
        "id": 410,
        "iso2": "kr",
        "iso3": "kor",
        "name": "كوريا الجنوبية",
        "flag": "http://localhost:3000/v1/countries/flag/KR.svg",
        "capital": "سول",
        "calling_code": 82,
        "continent": "آسیا",
        "lat": 37.0,
        "long": 127.5
    },
    {
        "id": 414,
        "iso2": "kw",
        "iso3": "kwt",
        "name": "الكويت",
        "flag": "http://localhost:3000/v1/countries/flag/KW.svg",
        "capital": "مدينة الكويت",
        "calling_code": 965,
        "continent": "آسیا",
        "lat": 29.3375,
        "long": 47.6581
    },
    {
        "id": 417,
        "iso2": "kg",
        "iso3": "kgz",
        "name": "قرغيزستان",
        "flag": "http://localhost:3000/v1/countries/flag/KG.svg",
        "capital": "بيشكك",
        "calling_code": 996,
        "continent": "آسیا",
        "lat": 41.0,
        "long": 75.0
    },
    {
        "id": 418,
        "iso2": "la",
        "iso3": "lao",
        "name": "لاوس",
        "flag": "http://localhost:3000/v1/countries/flag/LA.svg",
        "capital": "فيينتيان",
        "calling_code": 856,
        "continent": "آسیا",
        "lat": 18.0,
        "long": 105.0
    },
    {
        "id": 428,
        "iso2": "lv",
        "iso3": "lva",
        "name": "لاتفيا",
        "flag": "http://localhost:3000/v1/countries/flag/LV.svg",
        "capital": "ريجا",
        "calling_code": 371,
        "continent": "أوروبا",
        "lat": 57.0,
        "long": 25.0
    },
    {
        "id": 422,
        "iso2": "lb",
        "iso3": "lbn",
        "name": "لبنان",
        "flag": "http://localhost:3000/v1/countries/flag/LB.svg",
        "capital": "بيروت",
        "calling_code": 961,
        "continent": "آسیا",
        "lat": 33.8333,
        "long": 35.8333
    },
    {
        "id": 426,
        "iso2": "ls",
        "iso3": "lso",
        "name": "ليسوتو",
        "flag": "http://localhost:3000/v1/countries/flag/LS.svg",
        "capital": "ماسيرو",
        "calling_code": 266,
        "continent": "أفريقيا",
        "lat": -29.5,
        "long": 28.5
    },
    {
        "id": 430,
        "iso2": "lr",
        "iso3": "lbr",
        "name": "ليبيريا",
        "flag": "http://localhost:3000/v1/countries/flag/LR.svg",
        "capital": "مونروفيا",
        "calling_code": 231,
        "continent": "أفريقيا",
        "lat": 6.5,
        "long": -9.5
    },
    {
        "id": 434,
        "iso2": "ly",
        "iso3": "lby",
        "name": "ليبيا",
        "flag": "http://localhost:3000/v1/countries/flag/LY.svg",
        "capital": "طرابلس",
        "calling_code": 218,
        "continent": "أفريقيا",
        "lat": 25.0,
        "long": 17.0
    },
    {
        "id": 438,
        "iso2": "li",
        "iso3": "lie",
        "name": "ليختنشتاين",
        "flag": "http://localhost:3000/v1/countries/flag/LI.svg",
        "capital": "فادوتس",
        "calling_code": 423,
        "continent": "أوروبا",
        "lat": 47.1667,
        "long": 9.5333
    },
    {
        "id": 440,
        "iso2": "lt",
        "iso3": "ltu",
        "name": "ليتوانيا",
        "flag": "http://localhost:3000/v1/countries/flag/LT.svg",
        "capital": "فيلنيوس",
        "calling_code": 370,
        "continent": "أوروبا",
        "lat": 56.0,
        "long": 24.0
    },
    {
        "id": 442,
        "iso2": "lu",
        "iso3": "lux",
        "name": "لوكسمبورغ",
        "flag": "http://localhost:3000/v1/countries/flag/LU.svg",
        "capital": "لوكسمبورغ",
        "calling_code": 352,
        "continent": "أوروبا",
        "lat": 49.75,
        "long": 6.1667
    },
    {
        "id": 807,
        "iso2": "mk",
        "iso3": "mkd",
        "name": "مقدونيا",
        "flag": "http://localhost:3000/v1/countries/flag/MK.svg",
        "capital": "اسکوپیه",
        "calling_code": 389,
        "continent": "أوروبا",
        "lat": 41.8333,
        "long": 22.0
    },
    {
        "id": 450,
        "iso2": "mg",
        "iso3": "mdg",
        "name": "مدغشقر",
        "flag": "http://localhost:3000/v1/countries/flag/MG.svg",
        "capital": "أنتاناناريفو",
        "calling_code": 261,
        "continent": "أفريقيا",
        "lat": -20.0,
        "long": 47.0
    },
    {
        "id": 454,
        "iso2": "mw",
        "iso3": "mwi",
        "name": "مالاوي",
        "flag": "http://localhost:3000/v1/countries/flag/MW.svg",
        "capital": "ليلونغوي",
        "calling_code": 265,
        "continent": "أفريقيا",
        "lat": -13.5,
        "long": 34.0
    },
    {
        "id": 458,
        "iso2": "my",
        "iso3": "mys",
        "name": "ماليزيا",
        "flag": "http://localhost:3000/v1/countries/flag/MY.svg",
        "capital": "كوالالمبور",
        "calling_code": 60,
        "continent": "آسیا",
        "lat": 2.5,
        "long": 112.5
    },
    {
        "id": 462,
        "iso2": "mv",
        "iso3": "mdv",
        "name": "جزر المالديف",
        "flag": "http://localhost:3000/v1/countries/flag/MV.svg",
        "capital": "ماليه",
        "calling_code": 960,
        "continent": "آسیا",
        "lat": 3.25,
        "long": 73.0
    },
    {
        "id": 466,
        "iso2": "ml",
        "iso3": "mli",
        "name": "مالي",
        "flag": "http://localhost:3000/v1/countries/flag/ML.svg",
        "capital": "باماكو",
        "calling_code": 223,
        "continent": "أفريقيا",
        "lat": 17.0,
        "long": -4.0
    },
    {
        "id": 470,
        "iso2": "mt",
        "iso3": "mlt",
        "name": "مالطا",
        "flag": "http://localhost:3000/v1/countries/flag/MT.svg",
        "capital": "فاليتا",
        "calling_code": 356,
        "continent": "أوروبا",
        "lat": 35.8333,
        "long": 14.5833
    },
    {
        "id": 584,
        "iso2": "mh",
        "iso3": "mhl",
        "name": "جزر مارشال",
        "flag": "http://localhost:3000/v1/countries/flag/MH.svg",
        "capital": "ماجورو",
        "calling_code": 692,
        "continent": "أستراليا",
        "lat": 9.0,
        "long": 168.0
    },
    {
        "id": 478,
        "iso2": "mr",
        "iso3": "mrt",
        "name": "موريتانيا",
        "flag": "http://localhost:3000/v1/countries/flag/MR.svg",
        "capital": "نواكشوط",
        "calling_code": 222,
        "continent": "أفريقيا",
        "lat": 20.0,
        "long": -12.0
    },
    {
        "id": 480,
        "iso2": "mu",
        "iso3": "mus",
        "name": "موريشيوس",
        "flag": "http://localhost:3000/v1/countries/flag/MU.svg",
        "capital": "بورت لويس",
        "calling_code": 230,
        "continent": "أفريقيا",
        "lat": -20.2833,
        "long": 57.55
    },
    {
        "id": 484,
        "iso2": "mx",
        "iso3": "mex",
        "name": "المكسيك",
        "flag": "http://localhost:3000/v1/countries/flag/MX.svg",
        "capital": "مدينة مكسيكو",
        "calling_code": 52,
        "continent": "أمريكا الشمالية",
        "lat": 23.0,
        "long": -102.0
    },
    {
        "id": 583,
        "iso2": "fm",
        "iso3": "fsm",
        "name": "ولايات ميكرونيسيا المتحدة",
        "flag": "http://localhost:3000/v1/countries/flag/FM.svg",
        "capital": "پالیكير",
        "calling_code": 691,
        "continent": "أستراليا",
        "lat": 6.9167,
        "long": 158.25
    },
    {
        "id": 504,
        "iso2": "ma",
        "iso3": "mar",
        "name": "المغرب",
        "flag": "http://localhost:3000/v1/countries/flag/MA.svg",
        "capital": "الرِباط",
        "calling_code": 212,
        "continent": "أفريقيا",
        "lat": 32.0,
        "long": -5.0
    },
    {
        "id": 498,
        "iso2": "md",
        "iso3": "mda",
        "name": "مولدوفا",
        "flag": "http://localhost:3000/v1/countries/flag/MD.svg",
        "capital": "كيشيناو",
        "calling_code": 373,
        "continent": "أوروبا",
        "lat": 47.0,
        "long": 29.0
    },
    {
        "id": 492,
        "iso2": "mc",
        "iso3": "mco",
        "name": "موناكو",
        "flag": "http://localhost:3000/v1/countries/flag/MC.svg",
        "capital": "موناكو",
        "calling_code": 377,
        "continent": "أوروبا",
        "lat": 43.7333,
        "long": 7.4
    },
    {
        "id": 496,
        "iso2": "mn",
        "iso3": "mng",
        "name": "منغوليا",
        "flag": "http://localhost:3000/v1/countries/flag/MN.svg",
        "capital": "اولان باتور",
        "calling_code": 976,
        "continent": "آسیا",
        "lat": 46.0,
        "long": 105.0
    },
    {
        "id": 499,
        "iso2": "me",
        "iso3": "mne",
        "name": "الجبل الأسود",
        "flag": "http://localhost:3000/v1/countries/flag/ME.svg",
        "capital": "بودغوريتسا",
        "calling_code": 382,
        "continent": "أوروبا",
        "lat": 42.0,
        "long": 19.0
    },
    {
        "id": 508,
        "iso2": "mz",
        "iso3": "moz",
        "name": "موزمبيق",
        "flag": "http://localhost:3000/v1/countries/flag/MZ.svg",
        "capital": "مابوتو",
        "calling_code": 258,
        "continent": "أفريقيا",
        "lat": -18.25,
        "long": 35.0
    },
    {
        "id": 104,
        "iso2": "mm",
        "iso3": "mmr",
        "name": "ميانمار",
        "flag": "http://localhost:3000/v1/countries/flag/MM.svg",
        "capital": "نايبيداو",
        "calling_code": 95,
        "continent": "آسیا",
        "lat": 22.0,
        "long": 98.0
    },
    {
        "id": 516,
        "iso2": "na",
        "iso3": "nam",
        "name": "ناميبيا",
        "flag": "http://localhost:3000/v1/countries/flag/NA.svg",
        "capital": "ويندهوك",
        "calling_code": 264,
        "continent": "أفريقيا",
        "lat": 22.9576,
        "long": 18.4904
    },
    {
        "id": 520,
        "iso2": "nr",
        "iso3": "nru",
        "name": "ناورو",
        "flag": "http://localhost:3000/v1/countries/flag/NR.svg",
        "capital": "یارن",
        "calling_code": 674,
        "continent": "أستراليا",
        "lat": -0.5333,
        "long": 166.9167
    },
    {
        "id": 524,
        "iso2": "np",
        "iso3": "npl",
        "name": "نيبال",
        "flag": "http://localhost:3000/v1/countries/flag/NP.svg",
        "capital": "كاتماندو",
        "calling_code": 977,
        "continent": "آسیا",
        "lat": 28.0,
        "long": 84.0
    },
    {
        "id": 528,
        "iso2": "nl",
        "iso3": "nld",
        "name": "هولندا",
        "flag": "http://localhost:3000/v1/countries/flag/NL.svg",
        "capital": "امستردام",
        "calling_code": 31,
        "continent": "أوروبا",
        "lat": 52.5,
        "long": 5.75
    },
    {
        "id": 554,
        "iso2": "nz",
        "iso3": "nzl",
        "name": "نيوزيلندا",
        "flag": "http://localhost:3000/v1/countries/flag/NZ.svg",
        "capital": "ويلينغتون",
        "calling_code": 64,
        "continent": "أستراليا",
        "lat": -41.0,
        "long": 174.0
    },
    {
        "id": 558,
        "iso2": "ni",
        "iso3": "nic",
        "name": "نيكاراغوا",
        "flag": "http://localhost:3000/v1/countries/flag/NI.svg",
        "capital": "ماناغوا",
        "calling_code": 505,
        "continent": "أمريكا الشمالية",
        "lat": 13.0,
        "long": -85.0
    },
    {
        "id": 562,
        "iso2": "ne",
        "iso3": "ner",
        "name": "النيجر",
        "flag": "http://localhost:3000/v1/countries/flag/NE.svg",
        "capital": "نيامي",
        "calling_code": 227,
        "continent": "أفريقيا",
        "lat": 16.0,
        "long": 8.0
    },
    {
        "id": 566,
        "iso2": "ng",
        "iso3": "nga",
        "name": "نيجيريا",
        "flag": "http://localhost:3000/v1/countries/flag/NG.svg",
        "capital": "ابوجا",
        "calling_code": 234,
        "continent": "أفريقيا",
        "lat": 10.0,
        "long": 8.0
    },
    {
        "id": 578,
        "iso2": "no",
        "iso3": "nor",
        "name": "النرويج",
        "flag": "http://localhost:3000/v1/countries/flag/NO.svg",
        "capital": "اوسلو",
        "calling_code": 47,
        "continent": "أوروبا",
        "lat": 62.0,
        "long": 10.0
    },
    {
        "id": 512,
        "iso2": "om",
        "iso3": "omn",
        "name": "عُمان",
        "flag": "http://localhost:3000/v1/countries/flag/OM.svg",
        "capital": "مسقط",
        "calling_code": 968,
        "continent": "آسیا",
        "lat": 21.0,
        "long": 57.0
    },
    {
        "id": 586,
        "iso2": "pk",
        "iso3": "pak",
        "name": "باكستان",
        "flag": "http://localhost:3000/v1/countries/flag/PK.svg",
        "capital": "إسلام آباد",
        "calling_code": 92,
        "continent": "آسیا",
        "lat": 30.0,
        "long": 70.0
    },
    {
        "id": 585,
        "iso2": "pw",
        "iso3": "plw",
        "name": "بالاو",
        "flag": "http://localhost:3000/v1/countries/flag/PW.svg",
        "capital": "ميلكيوك",
        "calling_code": 680,
        "continent": "أستراليا",
        "lat": 7.5,
        "long": 134.5
    },
    {
        "id": 591,
        "iso2": "pa",
        "iso3": "pan",
        "name": "بنما",
        "flag": "http://localhost:3000/v1/countries/flag/PA.svg",
        "capital": "بنما سيتي",
        "calling_code": 507,
        "continent": "أمريكا الشمالية",
        "lat": 9.0,
        "long": -80.0
    },
    {
        "id": 598,
        "iso2": "pg",
        "iso3": "png",
        "name": "بابوا غينيا الجديدة",
        "flag": "http://localhost:3000/v1/countries/flag/PG.svg",
        "capital": "Port Moresby",
        "calling_code": 675,
        "continent": "أستراليا",
        "lat": -6.0,
        "long": 147.0
    },
    {
        "id": 600,
        "iso2": "py",
        "iso3": "pry",
        "name": "باراغواي",
        "flag": "http://localhost:3000/v1/countries/flag/PY.svg",
        "capital": "Asunción",
        "calling_code": 595,
        "continent": "أمريكا الجنوبية",
        "lat": -23.0,
        "long": -58.0
    },
    {
        "id": 604,
        "iso2": "pe",
        "iso3": "per",
        "name": "بيرو",
        "flag": "http://localhost:3000/v1/countries/flag/PE.svg",
        "capital": "ليما",
        "calling_code": 51,
        "continent": "أمريكا الجنوبية",
        "lat": -10.0,
        "long": -76.0
    },
    {
        "id": 608,
        "iso2": "ph",
        "iso3": "phl",
        "name": "الفلبين",
        "flag": "http://localhost:3000/v1/countries/flag/PH.svg",
        "capital": "مانيلا",
        "calling_code": 63,
        "continent": "آسیا",
        "lat": 13.0,
        "long": 122.0
    },
    {
        "id": 616,
        "iso2": "pl",
        "iso3": "pol",
        "name": "بولندا",
        "flag": "http://localhost:3000/v1/countries/flag/PL.svg",
        "capital": "وارسو",
        "calling_code": 48,
        "continent": "أوروبا",
        "lat": 52.0,
        "long": 20.0
    },
    {
        "id": 620,
        "iso2": "pt",
        "iso3": "prt",
        "name": "البرتغال",
        "flag": "http://localhost:3000/v1/countries/flag/PT.svg",
        "capital": "لشبونة",
        "calling_code": 351,
        "continent": "أوروبا",
        "lat": 39.5,
        "long": -8.0
    },
    {
        "id": 634,
        "iso2": "qa",
        "iso3": "qat",
        "name": "قطر",
        "flag": "http://localhost:3000/v1/countries/flag/QA.svg",
        "capital": "الدوحة",
        "calling_code": 974,
        "continent": "آسیا",
        "lat": 25.5,
        "long": 51.25
    },
    {
        "id": 642,
        "iso2": "ro",
        "iso3": "rou",
        "name": "رومانيا",
        "flag": "http://localhost:3000/v1/countries/flag/RO.svg",
        "capital": "بوخارست",
        "calling_code": 40,
        "continent": "أوروبا",
        "lat": 46.0,
        "long": 25.0
    },
    {
        "id": 643,
        "iso2": "ru",
        "iso3": "rus",
        "name": "روسيا",
        "flag": "http://localhost:3000/v1/countries/flag/RU.svg",
        "capital": "موسكو",
        "calling_code": 7,
        "continent": "آسیا",
        "lat": 60.0,
        "long": 100.0
    },
    {
        "id": 646,
        "iso2": "rw",
        "iso3": "rwa",
        "name": "رواندا",
        "flag": "http://localhost:3000/v1/countries/flag/RW.svg",
        "capital": "كيغالي",
        "calling_code": 250,
        "continent": "أفريقيا",
        "lat": -2.0,
        "long": 30.0
    },
    {
        "id": 659,
        "iso2": "kn",
        "iso3": "kna",
        "name": "سانت كيتس ونيفيس",
        "flag": "http://localhost:3000/v1/countries/flag/KN.svg",
        "capital": "باسه‌تر",
        "calling_code": 1,
        "continent": "أمريكا الشمالية",
        "lat": 17.3333,
        "long": -62.75
    },
    {
        "id": 662,
        "iso2": "lc",
        "iso3": "lca",
        "name": "سانت لوسيا",
        "flag": "http://localhost:3000/v1/countries/flag/LC.svg",
        "capital": "کاستریس",
        "calling_code": 1,
        "continent": "أمريكا الشمالية",
        "lat": 13.8833,
        "long": -61.1333
    },
    {
        "id": 670,
        "iso2": "vc",
        "iso3": "vct",
        "name": "سانت فينسنت والغرينادين",
        "flag": "http://localhost:3000/v1/countries/flag/VC.svg",
        "capital": "کینگزتاون",
        "calling_code": 1,
        "continent": "أمريكا الشمالية",
        "lat": 13.25,
        "long": -61.2
    },
    {
        "id": 882,
        "iso2": "ws",
        "iso3": "wsm",
        "name": "ساموا",
        "flag": "http://localhost:3000/v1/countries/flag/WS.svg",
        "capital": "آپیا",
        "calling_code": 685,
        "continent": "أستراليا",
        "lat": -13.5833,
        "long": -172.3333
    },
    {
        "id": 674,
        "iso2": "sm",
        "iso3": "smr",
        "name": "سان مارينو",
        "flag": "http://localhost:3000/v1/countries/flag/SM.svg",
        "capital": "سان مارینو",
        "calling_code": 378,
        "continent": "أوروبا",
        "lat": 43.7667,
        "long": 12.4167
    },
    {
        "id": 678,
        "iso2": "st",
        "iso3": "stp",
        "name": "ساو تومي وبرينسيب",
        "flag": "http://localhost:3000/v1/countries/flag/ST.svg",
        "capital": "سائوتومه",
        "calling_code": 239,
        "continent": "أفريقيا",
        "lat": 1.0,
        "long": 7.0
    },
    {
        "id": 682,
        "iso2": "sa",
        "iso3": "sau",
        "name": "السعودية",
        "flag": "http://localhost:3000/v1/countries/flag/SA.svg",
        "capital": "الرياض",
        "calling_code": 966,
        "continent": "آسیا",
        "lat": 25.0,
        "long": 45.0
    },
    {
        "id": 686,
        "iso2": "sn",
        "iso3": "sen",
        "name": "السنغال",
        "flag": "http://localhost:3000/v1/countries/flag/SN.svg",
        "capital": "داکار",
        "calling_code": 221,
        "continent": "أفريقيا",
        "lat": 14.0,
        "long": -14.0
    },
    {
        "id": 688,
        "iso2": "rs",
        "iso3": "srb",
        "name": "صربيا",
        "flag": "http://localhost:3000/v1/countries/flag/RS.svg",
        "capital": "بلگراد",
        "calling_code": 381,
        "continent": "أوروبا",
        "lat": 44.0,
        "long": 21.0
    },
    {
        "id": 690,
        "iso2": "sc",
        "iso3": "syc",
        "name": "سيشل",
        "flag": "http://localhost:3000/v1/countries/flag/SC.svg",
        "capital": "ویکتوریا",
        "calling_code": 248,
        "continent": "أفريقيا",
        "lat": -4.5833,
        "long": 55.6667
    },
    {
        "id": 694,
        "iso2": "sl",
        "iso3": "sle",
        "name": "سيراليون",
        "flag": "http://localhost:3000/v1/countries/flag/SL.svg",
        "capital": "فری‌تاون",
        "calling_code": 232,
        "continent": "أفريقيا",
        "lat": 8.5,
        "long": -11.5
    },
    {
        "id": 702,
        "iso2": "sg",
        "iso3": "sgp",
        "name": "سنغافورة",
        "flag": "http://localhost:3000/v1/countries/flag/SG.svg",
        "capital": "سنگاپور",
        "calling_code": 65,
        "continent": "آسیا",
        "lat": 1.3667,
        "long": 103.8
    },
    {
        "id": 703,
        "iso2": "sk",
        "iso3": "svk",
        "name": "سلوفاكيا",
        "flag": "http://localhost:3000/v1/countries/flag/SK.svg",
        "capital": "براتیسلاوا",
        "calling_code": 421,
        "continent": "أوروبا",
        "lat": 48.6667,
        "long": 19.5
    },
    {
        "id": 705,
        "iso2": "si",
        "iso3": "svn",
        "name": "سلوفينيا",
        "flag": "http://localhost:3000/v1/countries/flag/SI.svg",
        "capital": "لیوبلیانا",
        "calling_code": 386,
        "continent": "أوروبا",
        "lat": 46.0,
        "long": 15.0
    },
    {
        "id": 90,
        "iso2": "sb",
        "iso3": "slb",
        "name": "جزر سليمان",
        "flag": "http://localhost:3000/v1/countries/flag/SB.svg",
        "capital": "هونیارا",
        "calling_code": 677,
        "continent": "أستراليا",
        "lat": -8.0,
        "long": 159.0
    },
    {
        "id": 706,
        "iso2": "so",
        "iso3": "som",
        "name": "الصومال",
        "flag": "http://localhost:3000/v1/countries/flag/SO.svg",
        "capital": "موگادیشو",
        "calling_code": 252,
        "continent": "أفريقيا",
        "lat": 10.0,
        "long": 49.0
    },
    {
        "id": 710,
        "iso2": "za",
        "iso3": "zaf",
        "name": "جنوب إفريقيا",
        "flag": "http://localhost:3000/v1/countries/flag/ZA.svg",
        "capital": "پرتوریا",
        "calling_code": 27,
        "continent": "أفريقيا",
        "lat": -29.0,
        "long": 24.0
    },
    {
        "id": 728,
        "iso2": "ss",
        "iso3": "ssd",
        "name": "جنوب السودان",
        "flag": "http://localhost:3000/v1/countries/flag/SS.svg",
        "capital": "جوبا",
        "calling_code": 211,
        "continent": "أفريقيا",
        "lat": 8.0,
        "long": 30.0
    },
    {
        "id": 724,
        "iso2": "es",
        "iso3": "esp",
        "name": "إسبانيا",
        "flag": "http://localhost:3000/v1/countries/flag/ES.svg",
        "capital": "مدريد",
        "calling_code": 34,
        "continent": "أوروبا",
        "lat": 40.0,
        "long": -4.0
    },
    {
        "id": 144,
        "iso2": "lk",
        "iso3": "lka",
        "name": "سريلانكا",
        "flag": "http://localhost:3000/v1/countries/flag/LK.svg",
        "capital": "سری جایاواردنپورا کوته",
        "calling_code": 94,
        "continent": "آسیا",
        "lat": 7.0,
        "long": 81.0
    },
    {
        "id": 729,
        "iso2": "sd",
        "iso3": "sdn",
        "name": "السودان",
        "flag": "http://localhost:3000/v1/countries/flag/SD.svg",
        "capital": "خارطوم",
        "calling_code": 249,
        "continent": "أفريقيا",
        "lat": 15.0,
        "long": 30.0
    },
    {
        "id": 740,
        "iso2": "sr",
        "iso3": "sur",
        "name": "سورينام",
        "flag": "http://localhost:3000/v1/countries/flag/SR.svg",
        "capital": "پراماریبو",
        "calling_code": 597,
        "continent": "أمريكا الجنوبية",
        "lat": 4.0,
        "long": -56.0
    },
    {
        "id": 748,
        "iso2": "sz",
        "iso3": "swz",
        "name": "إسواتيني",
        "flag": "http://localhost:3000/v1/countries/flag/SZ.svg",
        "capital": "لوبامبا",
        "calling_code": 268,
        "continent": "أفريقيا",
        "lat": -26.5,
        "long": 31.5
    },
    {
        "id": 752,
        "iso2": "se",
        "iso3": "swe",
        "name": "السويد",
        "flag": "http://localhost:3000/v1/countries/flag/SE.svg",
        "capital": "ستوكهولم",
        "calling_code": 46,
        "continent": "أوروبا",
        "lat": 62.0,
        "long": 15.0
    },
    {
        "id": 756,
        "iso2": "ch",
        "iso3": "che",
        "name": "سويسرا",
        "flag": "http://localhost:3000/v1/countries/flag/CH.svg",
        "capital": "برن",
        "calling_code": 41,
        "continent": "أوروبا",
        "lat": 47.0,
        "long": 8.0
    },
    {
        "id": 760,
        "iso2": "sy",
        "iso3": "syr",
        "name": "سوريا",
        "flag": "http://localhost:3000/v1/countries/flag/SY.svg",
        "capital": "دمشق",
        "calling_code": 963,
        "continent": "آسیا",
        "lat": 35.0,
        "long": 38.0
    },
    {
        "id": 762,
        "iso2": "tj",
        "iso3": "tjk",
        "name": "طاجيكستان",
        "flag": "http://localhost:3000/v1/countries/flag/TJ.svg",
        "capital": "دوشنبه",
        "calling_code": 992,
        "continent": "آسیا",
        "lat": 39.0,
        "long": 71.0
    },
    {
        "id": 834,
        "iso2": "tz",
        "iso3": "tza",
        "name": "تنزانيا",
        "flag": "http://localhost:3000/v1/countries/flag/TZ.svg",
        "capital": "دودوما",
        "calling_code": 255,
        "continent": "أفريقيا",
        "lat": -6.0,
        "long": 35.0
    },
    {
        "id": 764,
        "iso2": "th",
        "iso3": "tha",
        "name": "تايلاند",
        "flag": "http://localhost:3000/v1/countries/flag/TH.svg",
        "capital": "بانكوك",
        "calling_code": 66,
        "continent": "آسیا",
        "lat": 15.0,
        "long": 100.0
    },
    {
        "id": 626,
        "iso2": "tl",
        "iso3": "tls",
        "name": "تيمور الشرقية",
        "flag": "http://localhost:3000/v1/countries/flag/TL.svg",
        "capital": "دیلی",
        "calling_code": 670,
        "continent": "آسیا",
        "lat": -8.55,
        "long": 125.5167
    },
    {
        "id": 768,
        "iso2": "tg",
        "iso3": "tgo",
        "name": "توغو",
        "flag": "http://localhost:3000/v1/countries/flag/TG.svg",
        "capital": "لومه",
        "calling_code": 228,
        "continent": "أفريقيا",
        "lat": 8.0,
        "long": 1.1667
    },
    {
        "id": 776,
        "iso2": "to",
        "iso3": "ton",
        "name": "تونغا",
        "flag": "http://localhost:3000/v1/countries/flag/TO.svg",
        "capital": "نوکوآلوفا",
        "calling_code": 676,
        "continent": "أستراليا",
        "lat": -20.0,
        "long": -175.0
    },
    {
        "id": 780,
        "iso2": "tt",
        "iso3": "tto",
        "name": "ترينيداد وتوباغو",
        "flag": "http://localhost:3000/v1/countries/flag/TT.svg",
        "capital": "بندر اسپانیا",
        "calling_code": 1,
        "continent": "أمريكا الشمالية",
        "lat": 11.0,
        "long": -61.0
    },
    {
        "id": 788,
        "iso2": "tn",
        "iso3": "tun",
        "name": "تونس",
        "flag": "http://localhost:3000/v1/countries/flag/TN.svg",
        "capital": "تونس",
        "calling_code": 216,
        "continent": "أفريقيا",
        "lat": 34.0,
        "long": 9.0
    },
    {
        "id": 792,
        "iso2": "tr",
        "iso3": "tur",
        "name": "تركيا",
        "flag": "http://localhost:3000/v1/countries/flag/TR.svg",
        "capital": "انقرة",
        "calling_code": 90,
        "continent": "آسیا",
        "lat": 39.0,
        "long": 35.0
    },
    {
        "id": 795,
        "iso2": "tm",
        "iso3": "tkm",
        "name": "تركمانستان",
        "flag": "http://localhost:3000/v1/countries/flag/TM.svg",
        "capital": "عشق‌آباد",
        "calling_code": 993,
        "continent": "آسیا",
        "lat": 40.0,
        "long": 60.0
    },
    {
        "id": 798,
        "iso2": "tv",
        "iso3": "tuv",
        "name": "توفالو",
        "flag": "http://localhost:3000/v1/countries/flag/TV.svg",
        "capital": "فونافوتی",
        "calling_code": 688,
        "continent": "أستراليا",
        "lat": -8.0,
        "long": 178.0
    },
    {
        "id": 800,
        "iso2": "ug",
        "iso3": "uga",
        "name": "أوغندا",
        "flag": "http://localhost:3000/v1/countries/flag/UG.svg",
        "capital": "کامپالا",
        "calling_code": 256,
        "continent": "أفريقيا",
        "lat": 1.0,
        "long": 32.0
    },
    {
        "id": 804,
        "iso2": "ua",
        "iso3": "ukr",
        "name": "أوكرانيا",
        "flag": "http://localhost:3000/v1/countries/flag/UA.svg",
        "capital": "كييف",
        "calling_code": 380,
        "continent": "أوروبا",
        "lat": 49.0,
        "long": 32.0
    },
    {
        "id": 784,
        "iso2": "ae",
        "iso3": "are",
        "name": "الإمارات العربية المتحدة",
        "flag": "http://localhost:3000/v1/countries/flag/AE.svg",
        "capital": "أبو ظبي",
        "calling_code": 971,
        "continent": "آسیا",
        "lat": 24.0,
        "long": 54.0
    },
    {
        "id": 826,
        "iso2": "gb",
        "iso3": "gbr",
        "name": "المملكة المتحدة",
        "flag": "http://localhost:3000/v1/countries/flag/GB.svg",
        "capital": "لندن",
        "calling_code": 44,
        "continent": "أوروبا",
        "lat": 54.0,
        "long": -2.0
    },
    {
        "id": 840,
        "iso2": "us",
        "iso3": "usa",
        "name": "الولايات المتحدة",
        "flag": "http://localhost:3000/v1/countries/flag/US.svg",
        "capital": "واشنطن العاصمة",
        "calling_code": 1,
        "continent": "أمريكا الشمالية",
        "lat": 38.0,
        "long": -97.0
    },
    {
        "id": 858,
        "iso2": "uy",
        "iso3": "ury",
        "name": "الأوروغواي",
        "flag": "http://localhost:3000/v1/countries/flag/UY.svg",
        "capital": "مونته‌ویدئو",
        "calling_code": 598,
        "continent": "أمريكا الجنوبية",
        "lat": -33.0,
        "long": -56.0
    },
    {
        "id": 860,
        "iso2": "uz",
        "iso3": "uzb",
        "name": "أوزبكستان",
        "flag": "http://localhost:3000/v1/countries/flag/UZ.svg",
        "capital": "طشقند",
        "calling_code": 998,
        "continent": "آسیا",
        "lat": 41.0,
        "long": 64.0
    },
    {
        "id": 548,
        "iso2": "vu",
        "iso3": "vut",
        "name": "فانواتو",
        "flag": "http://localhost:3000/v1/countries/flag/VU.svg",
        "capital": "پورت ویلا",
        "calling_code": 678,
        "continent": "أستراليا",
        "lat": -16.0,
        "long": 167.0
    },
    {
        "id": 862,
        "iso2": "ve",
        "iso3": "ven",
        "name": "فنزويلا",
        "flag": "http://localhost:3000/v1/countries/flag/VE.svg",
        "capital": "كاراكاس",
        "calling_code": 58,
        "continent": "أمريكا الجنوبية",
        "lat": 8.0,
        "long": -66.0
    },
    {
        "id": 704,
        "iso2": "vn",
        "iso3": "vnm",
        "name": "فيتنام",
        "flag": "http://localhost:3000/v1/countries/flag/VN.svg",
        "capital": "هانوي",
        "calling_code": 84,
        "continent": "آسیا",
        "lat": 16.0,
        "long": 106.0
    },
    {
        "id": 887,
        "iso2": "ye",
        "iso3": "yem",
        "name": "اليمن",
        "flag": "http://localhost:3000/v1/countries/flag/YE.svg",
        "capital": "صنعا",
        "calling_code": 967,
        "continent": "آسیا",
        "lat": 15.0,
        "long": 48.0
    },
    {
        "id": 894,
        "iso2": "zm",
        "iso3": "zmb",
        "name": "زامبيا",
        "flag": "http://localhost:3000/v1/countries/flag/ZM.svg",
        "capital": "لوساكا",
        "calling_code": 260,
        "continent": "أفريقيا",
        "lat": -15.0,
        "long": 30.0
    },
    {
        "id": 716,
        "iso2": "zw",
        "iso3": "zwe",
        "name": "زيمبابوي",
        "flag": "http://localhost:3000/v1/countries/flag/ZW.svg",
        "capital": "هراري",
        "calling_code": 263,
        "continent": "أفريقيا",
        "lat": -20.0,
        "long": 30.0
    }
]